PharmacyName,Address1,Suburb,Phone,Fax,ContactEmail,Treatment,,,,,,,Administer,OpeningHours,State,Postcode,ContactPerson,PreferredContactMethod,Notes,
,,,,,,M,B-N,B,V,D,BF,A,Depot,,,,,,,
Albany Community Pharmacy,"Lot P14, 18 Pioneer Rd",Albany,9841 1532,9842 5172,Dispensing@albanypharmacy.com.au,M,B-N,B,V,,,,,"6 DAYS
M-F 8.30-6pm Sat 9-12",WA,6330,Ciaran Ronayne/Jane Walker,Phone,**EMERGENCY USE ONLY (not be given to clients) - 0467 411 532 Ciaran Ronayne*,
Albany Dog Rock Chemist,"Shop 16 Dogrock Place
Middleton Rd",Albany,9841 1115,9841 1115,dogrock@pharmacyalliance.net,M,,,,,,,,"6 DAYS
Mon-Sat 8-6",WA,6330,Michael Hannagan,Email,,
Amcal Max Albany ,262-264 York Street,Albany,9842 2036,9841 1332,scripts@amcalalbany.com.au,M,B-N,B,,,,,,"7 DAYS M-Sat 8-8 
Sun 9-7",WA,6330,Divesh Sanghvi,Phone,"**EMERGENCY USE ONLY (not be given to clients) - 0431 921 437 Alison Fu** 
*Formerly Albany Amcal Chemist*",
Orana Pharmacy Albany,463 Albany Highway,Albany,9844 9837,9891 6137,admin@oranacommunitychemist.com.au,M,B-N,B,,,,,,6 DAYS M-F 9-5 Sat 9-12,WA,6330,Derek,Phone,*Accept One-off dosing* *Formerly 'Friendlies Orana' ,
"TerryWhite Chemmart Chester
Pass Albany","Shop 3 Chester Pass Mall, 
160 Chester Pass Road",Albany,9841 3841,9842 3767,dispensary@twcmchesterpass.com.au,M,B-N,B,V,D,,A,"Bradley 
Smithson","7 DAYS M-F 8-6 Sat 8-5
Sun 10-4",WA,6330,Mr Bradley Smithson,Unknown,"*Accept One-off dosing* *Formerly ""Brooks Garden Chemmart Pharmacy""",
"Pharmacy World Discount 
Chemist","Shop 4 & 5 Alinjarra SC
40 Greenpark Rd","Alexander 
Heights",9343 1900,9343 1990,pharmacyworld40@hotmail.com,M,B-N,B,,,,,,"7 Days M-Sat 8am-8.30
Sun 9-8.30",WA,6064,Mr Minh Loi Thach,Phone,,
Greenleaf Pharmacy Alkimos,"Tenancy 12, 1 Graceful Blvd",Alkimos,9502 9889,,"alkimos@greenleaf.au
script.alkimos@greenleaf.au",M,B-N,B,V,D,,A,"Jamie 
Bogoias",7 DAYS 8-8,WA,6038,Mr Jamie Bogoias,Phone,"Formerly ""Alkimos Beach Pharmacy""",
Pharmacy 777 Applecross,PO Box 7005,Applecross,9364 8777,9316 3974,applecross@pharmacy777.com.au,M,B-N,B,,,,,,7 DAYS + P/H 7am-11pm,WA,6153,Mr Mitchell Briotti,Unknown,777 Canning Highway,
Pharmacy 777 Applecross Village,Unit 1/ 40 Ardross Street,Applecross,9364 1986,9364 1615,applecrossvillage@pharmacy777.com.au,M,,B,,,,,,7 DAYS Mon-Sun 8-7,WA,6153,Nicholas Cox,Phone,,
Pharmacy 777 Canning Bridge,902A Canning Highway,Applecross,9364 4080,9316 4770,canningbridge@pharmacy777.com.au,M,B-N,B,V,D,,A,"Malgorzata
Andrysiak",6 DAYS M-F 8-6 Sat 8-2 ,WA,6153,Mrs Malgorzata Andryslak,Phone,"Formerly ""Applecross Community Pharmacy""",
"TerryWhite Chemmart 
Applecross",764 Canning Highway,Applecross,9316 8211,9316 8366,applecross@terrywhitechemmart.com.au,M,B-N,,,,,,,7 DAYS M-Sun 8-7,WA,6153,Neil Kennedy,Phone,"**EMERGENCY USE ONLY (not be given to clients) - 0415 668 188 Neil Kennedy* 
*Formerly ""Greg's Discount Chemist-Applecross, Just Pharmacy Applecross""",
Champion Drive In Pharmacy,1/240 Seville Drive,Armadale,9497 1393,9497 1856,championdrivepharmacy@gmail.com,M,B-N,,,,,,,"7 DAYS M-F 8.30-8 
Sat-Sun+P/H 9-6",WA,6112,"Clinton Leyden,Andrew Leong",Phone,**No prison release clients 1/1/2019**,
Optimal Pharmacy Plus Armadale,"Shop 70A & 71 Armadale SC
10 Orchard Avenue",Armadale,9399 1886,9399 1882,pm-oppa@westnet.com.au,M,B-N,B,,,,,,6 DAYS M-F 8-6 Sat 9-5,WA,6112,Mr Anthony Gascoigne,Phone,Approved for all formulations but Px only dispense oral 25/10/23,
TerryWhite Chemmart Armadale,"Shop 25 Armadale Shopping City
Jull Street",Armadale,9399 5557,9497 4916,armadale@twcmgroup.com,M,B-N,B,,,,,,"7 DAYS M-F 8.30-6 
Sat 8.30-5 Sun 11-4",WA,6112,Luke Edmunds,Phone,"Formerly ""Terry White Chemists Armadale""  ",
"Soul Pattinson Chemist Ascot 
Medical Ctr",7/398 Great Eastern Highway,Ascot,9277 3435,9277 9719,ascotpharmacy@outlook.com,M,B-N,B,,,,,,5 DAYS M-F 8.30-5,WA,6104,Dan Nguyen,Phone,Formerly 'Ascot Medical Centre Pharmacy',
Ashfield Community Chemist,1B Colstoun Road,Ashfield,6161 9958,6161 9958,ashfieldchemist@optusnet.com.au,M,B-N,B,,,BF,,,"6 DAYS M-F 8.30-7 
Sat 8.30-6",WA,6054,Mr Ben Tran,{Not Stated},**EMERGENCY USE ONLY (not be given to clients) - 0422 373 465 Ben Tran**,
Atwell Community Pharmacy,"Shop 12 Stargate SC
129 Lydon Boulevard",Atwell,9414 6000,9414 6100,atwellrx@bigpond.net.au,M,,,,,,,,7 DAYS  8-8,WA,6164,John,Phone,**EMERGENCY USE ONLY (not be given to clients) - 0417 989 077 John**,
"Harvest Lakes Discount Drug 
Store",2/23 Gibbs Road,Atwell,6363 5841,9395 8297,hl@rkpharmacy.com.au,M,B-N,B,,,,,,7 DAYS 7am-12am,WA,6164,Ms Denise Poon,Phone,"**EMERGENCY USE ONLY (not be given to clients) - 0431 603 285 Denise Poon**
 *Accept One-off dosing* Dosing between 6.30am and 11.30pm",
Pharmacy 777 Augusta,87-89 Blackwood Avenue,Augusta,9758 1516,9758 1400,augusta@pharmacy777.com.au,M,B-N,B,,,,,,"7 DAYS M-F 9-1, 2-5.30
Sat 9-5 Sun 10-2",WA,6290,Mrs Beth Hastie,Phone,"*Accept One-off dosing* ""Formerly Augusta Pharmacy""",
Chemwise Pharmacy Australind,3/12 Leisure Drive,Australind,9797 0874,9725 9628,australind@chemwisepharmacy.com.au,,B-N,B,V,,,,,"6 DAYS M-F 8-6 
Sat 8.30-12.30",WA,6233,Chirag Shah,Phone,"**EMERGENCY USE ONLY (not be given to clients) - 0437 515 367 Mary Rose** 
*Accept One-off dosing Bup-N only* Formerly ""777 Australind"",""Friendlies Australind""",
Pharmacy 777 Aveley,"Shop 10 The Vale Town Centre
Swanleigh Parade",Aveley,6296 4183,6296 4219,aveley@pharmacy777.com.au,M,B-N,B,V,,,A,"Mr Shilan
Dodhia","7 DAYS M-F 8-7 
Sat-Sun 8.30-5",WA,6069,Mr Shilan Dodhia,Phone,"**EMERGENCY USE ONLY (not be given to clients) - 0407 084 708 Shilan Dodhia* 
*Formerly ""Friendlies Aveley"", ""Pharmacy @ Vale""",
Baldivis Pharmacy,2 Wattlebird Way,Baldivis,9524 2422,9523 2422,kate@baldivispharmacy.com.au,,B-N,,,,,,,7 DAYS M-Sun 7am-10pm,WA,6171,Ms Kate Dupagne,Phone,Not taking new client-updated 4 May 2021,
"Blooms The Chemist 
Baldivis Stockland","Shop 17 Stockland Shopping Ctr
Safety Bay Road",Baldivis,9524 3803,9523 2186,baldivisstockland@blooms.net.au,M,B-N,B,,,,,,7 DAYS M-Sun 8-8.30,WA,6171,Mr Dhruvkumar Shah,Phone,Not taking patients currently 27/07/21,
"Clinicare Compounding
Pharmacy Baldivis","Unit 1, 7 Minden Lane",Baldivis,9523 2274,9523 2394,baldivis@clinicarepharmacy.com.au,M,B-N,B,,,,,,"6 DAYS M-F 8.30-5.30 
Sat 9-1",WA,6171,Philip Johnston,Phone,**EMERGENCY USE ONLY (not be given to clients) - 0431 829 261 Philip Johnston**,
Optimal Pharmacy Plus Balga,"Shop 7 Fieldgate Square
25 Culloton Cres",Balga,9342 2212,9342 7721,pm-oppba@westnet.com.au,M,,,V,,,,,6 DAYS M-Sat 8-6 ,WA,6061,Guido Fazari,Phone,Formerly Guardian Pharmacy Balga,
Amcal Pharmacy Ballajura,"Shop 4 & 5, 5 Hamelin Drive",Ballajura,9248 1593,9248 8064,malagapharmacy@gmail.com,M,B-N,B,,,,,,"7 DAYS M-F 8.30-6.30 
Sat 8.30-5 Sun 11-4",WA,6090,Mrs Nhu Serena Tran,Phone,Formerly Health First Pharmacy Malaga,
"TerryWhite Chemmart 
Banksia Grove",PO Box 203 Joondalup DC          WA 6919,"Banksia 
Grove",9206 2712,9206 1764,banksiagrove@twcmgroup.com,M,B-N,B,,,,,,"7 DAYS M-F 8-7 Sat 8-6 
Sun 11-5",WA,6031,Kalpesh Shah,Phone,"*EMERGENCY USE ONLY(not be given to clients)-0411 432 184 Kalpesh Fulchand Shah* 
Accept one-off dosing  ""Formerly Banksia Grove Chemmart Pharmacy""
T2 Woolworths Banksia Grove SC, 81 Ghost Gum Blvd",
"Wizard Pharmacy Banksia 
Grove","Shop 15 Banksia Grove Village
1001 Joondalup Drive","Banksia 
Grove",9206 1011,9206 1022,csc.banksiagrove1@wizardphy.com.au,M,B-N,B,,,,,,"7 DAYS M-F 8-7, Sat 8-5
Sun 11-5",WA,6031,Andrew Stent,Email,"Formerly ""Friendlies Pharmacy Banksia Grove"" Accept one-off dosing",
Bassendean Pharmacy,1 Old Perth Road,Bassendean,9279 2495,9279 1277,bassendeanpharmacy@gmail.com,M,B-N,B,,,,,,6 DAYS M-F 8-6 Sat 8-2,WA,6054,Quock Khanh NGUYEN,Phone,,
"Home Care Pharmacy 
Bassendean",51 Old Perth Road,Bassendean,9279 9503,6270 7066,homecarepharmacybassendean@gmail.com,M,B-N,B,,,,,,5 DAYS M-F 8.30-6,WA,6054,Quoc Khanh NGUYEN,Phone,"**EMERGENCY USE ONLY (not be given to clients) - 0412 078 474 Quoc Khanh Nguyen*
Accept One-off dosing *Formerly Pharmacy 51*",
"TerryWhite Chemmart 
Bayonet Head","Shop 8 Bayonet Head SC
208 Lower King Road","Bayonet 
Head",9844 9615,9844 9416,bayonethead@terrywhitechemmart.com.au,M,B-N,B,,,,,,"6 DAYS M-Fri 8-6, Sat 8-5",WA,6330,Mrs Penelope Gooding,Phone,"*Accept One-off dosing* 
Formerly ""Terry White Chemists Bayonet Head, Bayonet Head Pharmacy""",
"Amcal Bayswater Drive-in 
Pharmacy",431 Guilford Road,Bayswater,9272 4465 ,9272 6102 ,bdic@bigpond.com,,B-N,,,,,,,"7 DAYS Mon-Sat 8-7
Sat 8-6 Sun/PH 9-6",WA,6053,Sophie / Justin,Phone,"**EMERGENCY USE ONLY (not be given to clients) - 0423 064 688 Tin TRAN or
 0417 558 806 Riwan SU** 
Formerly 'Bayswater Drive in Chemist'",
"Amcal Night And Day Pharmacy 
Bayswater",Unit 1 / 488 Walter Road E,Bayswater,9378 1917,9377 7024,bayswater1@guardianpharm.net,M,B-N,,V,,,,,7 DAYS M-Sat 8-7 Sun 8-5,WA,6053,"Mark, Ron",Phone,"FULL - no new CLs 24/11/22
Formerly 'Night and Day Pharmacy Bayswater'",
Pharmacy 777 Bayswater,1 King William Street,Bayswater,9371 8342,9271 1275,bayswater@pharmacy777.com.au,M,B-N,B,,,,,,7 DAYS+P/H 8am-8pm,WA,6053,Miss Yi Lin Boo,Phone,"**EMERGENCY USE ONLY (not be given to clients) - 0433 935 315 Yi Lin** 
*Accept One-off dosing* Seeking new clients",
"Beaconsfield Community 
Pharmacy","Shop 7 Beaconsfield Plaza SC
115 Lefroy Road",Beaconsfield,9337 2054,6477 3624,bcp115@outlook.com,M,,,,,,,,"7 DAYS M-F 8-7 
Sat+P/H 8-5 Sun 8-1",WA,6162,Mr Frank La Macchia,Email,*Accept One-off dosing* *Emergency mobile 0411745924*,
Advantage Pharmacy Bedford,Unit 11 / 215 Grand Promenade,Bedford,"6155 6830 
9271 2725",6155 6839,pharmacist@bedfordpharmacy.com.au,M,B-N,B,V,D,,A,"Wesley
Williams","6 DAYS M-F 8.30-5.30
Sat 8.30-1",WA,6052,Jeff Au,Phone,"Formerly Bedford Pharmacy 
*Accept One-off Dosing* No dosing during the first and last hour of opening time.",
Healthlink Pharmacy Beechboro,"Unit 2, 252 Benara Road",Beechboro,9279 4887,9279 6644,healthlink.beechboro@outlook.com,M,B-N,B,,,,,,"7 DAYS M-F 9-6.30
Sat-Sun 9-12.30",WA,6063,Mr Mohidien Khan,Email,"NO new referrals Sep 2023
**EMERGENCY USE ONLY (not be given to clients) - 0438 786 119 Mohidien Khan** 
Accept One-off dosing* Closed on Public Holidays",
"Optimal Pharmacy Plus 
Altone Park",Shop 12-13 161 Altone Road,Beechboro,9279 9727,9279 5594,oppap@iinet.net.au,M,B-N,B,,,,,,"7 DAYS M-F 8.30-6.30 
Sat 8.30-5 Sun 11-5",WA,6063,Anthony Gascoigne,Phone,,
Beeliar Community Pharmacy,"Shop 8, 28 Lakefront Avenue",Beeliar,6498 9346,6498 9342,info@bcpchemist.com.au,M,,,,,,,,"6 DAYS M-Sat 8.30-6 
Sun 9-1",WA,6164,Mr How Lok,Phone,,
Soul Pattinson Chemist Beeliar,1/ 8 Durnin Avenue,Beeliar,9437 3677,9437 3477,spcbeeliar@gmail.com,M,B-N,B,,,BF,,,7 DAYS M-F 7.30-8.30 Sat-Sun 8-6,WA,6164,,Phone,"**EMERGENCY USE ONLY (not be given to clients) - 0421 558 305 Nirmal Badesha**
 Formerly ""Pharmacist Advice Beeliar"" ""Beeliar Discount Drug Store""",
Greenleaf Pharmacy Belridge,"Shops 10-11 Belridge Shopping Ctr 
Ocean Reef Road",Beldon,6555 1833,NIL,belridge@greenleaf.au,M,B-N,B,V,D,,A,"Chang Mei 
CHEW (Rachel)","7 DAYS M-F 8-8 Sat 8-6 
Sun 11-5",WA,6027,Ms Chang Mei CHEW (Rachel),Phone,,
Amcal Epsom Ave Pharmacy,148 Epsom Avenue,Belmont,9277 3446,9277 5587,epsomavenue@amcal.net.au,M,B-N,B,,,,,Ellsy Choo,"6 DAYS M-F 8.30-6 
Sat 8.30-5",WA,6104,Ms Li Chuen (Ellsy) Choo,Unknown,"*Formerly Pharmacy 777 Belmont, Belmont Discount Drug Store* Mobile No. 0437 625 685 
Please fax script or check with pharmacy if emailed",
"TerryWhite Chemmart 
Bennett Springs","Shop 11-12 Springs SC
Bridgeman Drive","Bennett 
Springs",9377 7087,9378 9385,springschemmart@westnet.com.au,M,B-N,B,,,,,,"7 DAYS M-F 8.30am-7pm 
Sat 8.30-5 Sun 11-5",WA,6063,Mr Michael Japp,Phone,"NO new referrals Sep 2023
**EMERGENCY USE ONLY (not be given to clients) - 0417 385 485 Michael Japp** 
""Formerly Springs Chemmart Pharmacy"" Please fax scripts or check with pharmacy if script is emailed",
Gerald Burns Pharmacy,"Shop 7 Melville Plaza SC
380 Canning Highway",Bicton,9339 3696,9339 3809,geraldburns.pharmacy@frednet.com.au,M,,,,,,,,"7 DAYS+P/H M-Sat 8-8 
Sun+P/H 11-5",WA,6157,Amanda Bryce,Unknown,Only taking patients who have been stable on the program for 5 years - 02/06/21,
Terrywhite Chemmart Bindoon,25 Binda Place,Bindoon,9576 1666,9576 1777,bindoon@twcmgroup.com.au,M,B-N,B,,,,,,"7 DAYS M-F 9-5.30
Sat 9-4 Sun 9-2",WA,6502,Mr Omid Zare,Phone,*Accept One-off dosing MMTP only* Formerly Bindoon Pharmacy,
Boddington Pharmacy,27 Bannister Road,Boddington,9883 9962,9883 9983,boddingtonpharmacy@gmail.com,M,B-N,B,,,BF,,,"6 DAYS M-F 8.30-6
Sat 8.30-12.30",WA,6390,Mr Hian-Boon Hsu,{Not Stated},,
"Wizard Pharmacy Garden City 
(Kmart Mall)","Shop 120 Garden City SC
125 Riseley Street",Booragoon,9364 7606,9463 6263,pm.gardencity1@wizardphy.com.au,M,B-N,B,V,D,,,,"7 DAYS M-F 8.30-5.30 
Sat 8.30-5 Sun 11-5",WA ,6154,Mr Aaron Poon,Phone,Seek more clients 7 Aug 2024,
Boulder Pharmacy,46-48 Burt Street,Boulder,9093 1150,9034 8177,boulderpharmacy@gmail.com,M,B-N,B,V,D,,A,"Brooke
Goddard","7 DAYS M-Sun 8.30-5.30
Sat 8.30-2 Sun 9-2",WA,6432,,Phone,"Formerly ""PharmaSave Boulder Pharmacy""",
Boyanup Pharmacy,1/72 Bridge Street,Boyanup,9731 5000,9716 7474,boyanuppharmacy@gmail.com,M,B-N,B,V,D,,,,5 DAYS M-F 9-5,WA,6237,Mr Peter Meiring,{Not Stated},Not planning to take on Depot Admin clients (10/6/24),
Boyup Brook Pharmacy,83 Abel Street,Boyup Brook,9765 1066,6316 4403,admin@boyupbrookpharmacy.com.au,M,B-N,B,V,D,,A,"Mrs Kathryn
Westphal",6 DAYS M-F 9-5 Sat 9-12,WA,6244,John Forster,Unknown,*Accept one-offs dosing*,
Brentwood Pharmacy,64 Cranford Ave,Brentwood,9364 2750,9316 2656,pharmacist@brentwoodpharmacy.com.au,M,B-N,B,V,D,,A,"Michelle
McAnuff","7 DAYS M-F 8.30-7
Sat 8.30-5 Sun  9-12",WA,6153,Michelle Mcanuff,Phone,,
Pharmacy 777 Bridgetown,PO Box 30,Bridgetown,9761 1004,9761 4103,bridgetown@pharmacy777.com.au,M,B-N,B,V,,,,,7 DAYS + P/H 8-7,WA,6255,Mauro Stocco,Phone,"*Accept One-off dosing* 127 Hampton St, Bridgetown Mobile: 0419903773",
Broome Pharmacy,PO Box 7479,Broome,9192 1866,9193 5132,dispensary@broomepharmacy.com.au,M,B-N,,V,,,,,"7 DAYS M-F 8.30-6
Sat 8.30-5 Sun 9-3",WA,6725,Jordan Lindquist,Unknown,"*Accept one-offs dosing* **ALL Mail should go to PO Box address above*
Shop 12 & 13 Broome Boulevard Shopping Centre, Frederick Street,Broome WA 6725 
*Former PO Box 1542*",
"Kimberley Pharmacy 
Services (Broome)",61-63 Robinson Street,Broome,9192 3611,9192 3699,kps@kimberleypharmacyservices.com.au,M,B-N,,V,,,,,"6 Days 
M-F 8.30-5, Sat 9-2",WA,6725,Ms Hannah Mann,Phone, ,
TerryWhite Chemmart Bullsbrook,"Shop 1A The Brooks SC
2529 Great Northern Hwy",Bullsbrook,9571 1122 ,6230 4923,admin@bullsbrookpharmacy.com.au,M,B-N,B,,,BF,,,"7 DAYS 
M-F 8-6.30 Sat 8-5 
Sun 9-4",WA,6084,Mr Omid Zare - Owner,{Not Stated},*Formerly Bullsbrook Pharmacy*  Not opening PUBLIC HOLIDAYS,
Bunbury Drive In Pharmacy,55 Forrest Avenue,Bunbury,9791 2447,9721 9955,admin@bdicwa.com.au,M,B-N,B,,,,,,7 DAYS 8.30am-9pm,WA,6230,Mr Ross Darnell,Phone,*Accept One-off dosing* Full-not taking new clients 05/06/20 ,
Chemwise Pharmacy Bunbury,"Unit 1, 122 Spencer St",Bunbury,9721 6555,9791 1068,bunbury@chemwisepharmacy.com.au,M,B-N,B,V,,,,,"6 DAYS M-Fri 8-6
Sat 9-5",WA,6230,Kalpesh Shah,Phone,"**EMERGENCY USE ONLY (not be given to clients) - 0411 432 184 Kalpesh Shah** 
Formerly ""Friendlies Bunbury"", ""Pharmacy Plus Bunbury"", ""Pharmacy 777 Bunbury Spencer St""",
TerryWhite Chemmart South City,182 Spencer Street,Bunbury,9721 2341,9721 2829,webster@southcitypharmacy.com.au,M,B-N,B,,,,,,"7 DAYS M-Fri 8-7 
Sat 8.30-5 Sun 10-1",WA,6230,Pharmacist on duty/Evelyn Ong,Fax,"*Accept one-off dosing* **EMERGENCY USE ONLY (not be given to clients) - 0430 222 839 Evelyn Ong or 0421 842 310 Mark Smith** 
*Formerly South City Chemmart Pharmacy* Not taking clients currently 04/08/20 ",
Pharmacy 777 Usher Compounding,36 Cranbrook Way,Bunbury,9795 7631,9795 5560,usher@pharmacy777.com.au,M,B-N,B,V,D,,A,"Chaoqun 
WAN","6 DAYS M-F 9-5
Sat 9-12",WA,6230,Warren Cargill,Phone,"**EMERGENCY USE ONLY (not be given to clients) - 0411 125 310 Warren** 
*Accept One-off dosing* Formerly Usher Pharmacy, Usher Compounding Pharmacy",
"Wizard Pharmacy 
Bunbury Centrepoint","Shop 4 Bunbury Centrepoint SC
60 Blair Street",Bunbury,9721 5166,9721 5192,dispensary.bunbury3@wizardphy.com.au,M,B-N,B,,,,,,7 DAYS M-Sun 8.30-5.30,WA,6230,Mr Giovanni Antonelli,Phone,"*Not taking new clients 04/08/20 Formerly ""Centrepoint Amcal Chemist"" ",
Amcal Express Burswood ,265 Great Eastern Hwy,Burswood,9361 8777,9361 8077,burswood@amcal.net.au,M,B-N,B,V,D,,A,"Tyson 
Wellman","7 DAYS+P/H 8-11pm
Depot Admin Tue-Thu 12-6pm",WA,6100,Tyson Wellman,Phone,"Approved for 180 clients.
**Accept One-off dosing** Formerly Amcal Max Burswood 
Formerly Burswood Amcal Night and Day Chemist",
Broadwater Pharmacy Busselton,"Shop 14 Broadwater Village
Bussell Highway",Busselton,9754 2626,9754 2421,scripts@bwaterpharmacy.com.au,M,B-N,,,,,,,7 DAYS 8.30-6pm,WA,6280,David Lismann,Phone,"**EMERGENCY USE ONLY (not be given to clients) - 0401 767 651 Michael Hewson** 
*Accept One-off dosing*",
Busselton Discount Drug Store,"Shop 8, 67 Kent Street",Busselton,9752 1879,9754 7393,disp@bsndds.com.au,M,,,,,,,,"7 DAYS+P/H M-Sat 8-6
Sun 10-5",WA,6280,Warren Oliver,Phone,*Accept One-off dosing* Formerly Busselton Healthsense Pharmacy,
Geographe Pharmacy,"Shop 5 Bayside SC
330 Marine Terrace",Busselton,9752 1700,9752 1600,geographepharmacy@gmail.com,M,B-N,B,,,,,,6 DAYS M-F 8-6 Sat 8-2,WA,6280,Ms Nadine Botha,Phone,"*Formerly ""Pharmacy 777 Busselton Bayside""",
Pharmacy 777 Busselton,"Shop 5 Central Shopping Centre
5 Prince St",Busselton,9752 1276,9754 4275,busselton.pharmacist@pharmacy777.com.au,M,B-N,B,V,D,,A,"Mr Scott
Braddock",7 DAYS 8-6,WA,6280,Mr Scott Braddock,Phone,"Formerly Friendlies Busselton"", ""Chemmart Central Pharmacy Busselton"" ",
Busselton Pharmacy,"Shop 3 West Busselton SC
170 Bussell Highway",Busselton,9754 2922,9754 2117,scripts@busseltonpharmacy.com.au,M,B-N,,,,,,,"7 DAYS M-F 8-7 
Sat 8-6 Sun 9-5",WA,6280,Mr Jarred Smith,Phone,"*Accept One-off dosing* Contact first before referring clients
Formerly West Busselton Pharmacy",
Pharmacy 777 Butler,8 / 2 Captiva Approach,Butler,9562 1397,9562 1048,butler@pharmacy777.com.au,M,B-N,B,V,D,,A,"Mr Mena
Botross",7 DAYS M-Sun 7-9,WA,6036,Mena Botross,Phone,*Open for new clients as of 24 February 2020*,
Superchem Butler Pharmacy,7/175 Butler Road,Butler,9562 1074,9562 0308,butler@superchem.com.au,M,B-N,B,,,,,,"7 DAYS M-F 8.30-7pm 
Sat 9-5 Sun 11-5",WA,6036,Mr Pak Yew Wong,Phone,,
Byford Glades 7 Day Pharmacy,"Shop E, 15 Covenant Lane",Byford,9526 4777,9526 4788,by@rkpharmacy.com.au,M,B-N,B,,,,,,7 Days 8-8,WA,6122,David Tran,Phone,Formerley Byford Discount Drug Store,
Priceline Pharmacy Byford,"Shop 2 Byford Village SC
20 Abernethy Road",Byford,9525 6222,9525 6225,pp.byford@gmail.com,M,B-N,B,,,,,,"7 DAYS M-F 8-8 Sat 8-5 
Sun & P/H 9-5",WA,6122,Kevin Cho,Phone,"**EMERGENCY USE ONLY (not be given to clients) - 0422 794 486 Kevin Cho** 
*Accept One-off dosing* Looking for new clients",
Canning Vale Pharmacy,1/11 Vostan Road,Canning Vale,6258 5238,,info@canningvalepharmacy.com.au,M,B-N,B,,,,,,7 DAYS M-F 9-6 Sat 9-2 Sun 9-12,WA ,6155,Ms Julie Lazum,Phone,,
"Hamilton's Compounding 
Pharmacy",33 Rousham Street,Canning Vale,6254 2700,6254 2707,hamiltonshealth@westnet.com.au,M,B-N,B,,,,,,"5 DAYS M-F 9-5 
",WA,6155,Felecia Hamilton,Unknown,"Formerly ""Hamilton's Health Performance Pharmacy""",
Wizard Pharmacy Livingston,"Shop 17, 100 Ranford Road",Canning Vale,9456 5000,9456 5500,pm.livingston1@wizardphy.com.au,M,B-N,B,,,BF,,,"6 DAYS M-F 8-7
Sat 8-5.30 Sun 11-5",WA,6155,Peter Santos / Jeffrey Lam,Phone,Do not accept clients.  Supply pharmacy only (1/1/19),
Market City Pharmacy,1/280 Bannister Road,Canning Vale,9278 6560,9278 6561,john@marketcitypharmacy.com,M,B-N,B,,,,,,"7 DAYS M-F 7-7 
Sat & Sun 8-4",WA,6155,John Nguyen,{Not Stated},*Accept One-off dosing* ,
Amcal Pharmacy Cannington,"Shop 1001-3 Westfield Carousel
1382 Albany Highway",Cannington,9351 9147,9351 9264,cannington@amcal.net.au,M,B-N,B,,,,,,"7 Days 9-5.30 Sat 9-5 
Sun 11-5",WA,6107,Mandy Lu,{Not Stated},,
"Cannington Medical 
Centre Pharmacy","Shop 1, 8-10 Hamilton Street",Cannington,9356 7556,,canningtonmedical.pharmacy@gmail.com,M,B-N,B,,,,,,"7 DAYS M-F 7am-8pm 
Sat-Sun 8am-8pm",WA,6107,Lin Tzee LOH,Phone,"*Switchboard Phone Nr 6298 9999* 
*EMERGENCY USE ONLY (not be given to clients) - 0402 196 135 Lin Tzee LOH** 
Not accepting one-off dosing but seeking more permanent patients
Nil fax available, email only please",
Wizard Pharmacy Cannington (Full),Shop 23 1480-1490 Albany Hwy,Cannington,9258 4516,9258 4718,pm.cannington1@wizardphy.com.au,M,B-N,B,,,,,,"7 DAYS M-F 7.30-8 
Sat-Sun 9-7",WA,6107,Aga Palecka - Manager,Phone,"No new referrals 22 Oct 2021
**EMERGENCY USE ONLY (not be given to clients) - 0403 499 622 Esther HO** ",
Capel Pharmacy,21 Properjohn Road,Capel,9727 3300,9727 3033,capelpharmacy@hotmail.com,M,,B,,,,,,"6 DAYS M-F 8.30-5.30 
Sat 8.30-12noon",WA,6271,David Lisman,Phone,**EMERGENCY USE ONLY (not be given to clients) - 0430 022 397 David Lisman** ,
Caring Pharmacy Carlisle,50 Planet Street,Carlisle,9361 9778,9361 9778,Carlisle@caringpharmacy.com.au,M,B-N,B,V,D,,A,Paul Lai,"7 DAYS M-F 8.30-6, Sat 8.30-5, Sun 9-1",WA,6101,Paul Lai,Phone,"Formerly ""Carlisle Pharmacy""",
Amcal Chemist Carnarvon,"Shop M14 Carnarvon Central
35 Robinson Street",Carnarvon,9941 1547,9941 2850,dispensary.carnarvon@amcal.net.au,M,B-N,B,,,,,,"7 DAYS M-F 8-6 Sat 8-3 
Sun 8-1",WA,6701,Robin Fahl,Phone,"Shop 14 Carnarvon Central Shopping Centre, 35 Robinson St, Carnarvon. ",
Chidlow Pharmacy,"Shop 5, 2 Memorial Avenue",Chidlow,9572 4220 ,9572 4224,chidlowpharmacy@yahoo.com.au,M,B-N,B,,,,,,"7 DAYS M-F 9-5 
Sat/Sun 9-2",WA,6556,Mr Ahmed Hassan El-Lebeidy,Phone,"**EMERGENCY USE ONLY (not be given to clients) - 0404 934 387 Mohamed ** 
*Not taking MMTP clients 28 Jul 2017*",
Island Pharmacy,26 Gaze Road,"Christmas 
Island",9164 8337,9164 8432,cipharmg@pulau.cx,M,B-N,B,,,,,,"6 DAYS M-F 9-12.30, 1-5
Sat 9-12",WA,6798,Laura Trilinl,Phone,*Accept One-off dosing*,
Herdsman Pharmacy,"Shop 1 & 3, 1 Flynn St",Churchlands,9387 6665,9387 6664,herdsmandispensary@gmail.com,M,,,,,,,,7 DAYS 8-9,WA,6018,Kyle/Hayley,Phone,"Formerly Full Life Herdsman 7 Day Pharmacy 
**EMERGENCY USE ONLY (not be given to clients) - 0439 923 468 Sharee van den Berg**",
Advantage Pharmacy Claremont,"20 Bayview Terrace,",Claremont,9383 3311,9383 3055,dispensary@claremontchemist.com.au,M,,,,,,,,"7 DAYS M-Sat 8-5.30 
Sun 11-5",WA,6010,Mr Philip Tomazin,Unknown,"**EMERGENCY USE ONLY (not be given to clients) - 0477 376 657 Daniel Walsh** 
Mobile: 0404683559 Formerly ""Friendlies Chemists Claremont""",
Michael's Chemist Claremont,3/248 Stirling Highway,Claremont,9384 7477,9384 7221,claremont@michaelschemist.com.au,M,B-N,B,,,,,,"7 DAYS M-F 8-7 
Sat/Sun 8-6",WA,6010,Dennis Pham,Phone,**EMERGENCY USE ONLY (not be given to clients) - 0425 560 758 Lydia Lim**,
"Stirling Highway Drive-In 
Pharmacy 777 ",234 Stirling Highway,Claremont,9384 2292,9384 4230,dispensary@sdip.com.au,M,B-N,B,V,D,,A,"Maria 
Bryson",7 DAYS+P/H 7am-11pm,WA,6010,MARIE/KIMSU,Unknown,"*Not taking MMTP clients as of 26/10/2021* *Accept One-off dosing* 
Formerly Amcal Max Stirling Drive In Pharmacy and Stirling Drive In Pharmacy",
Pharmacy on Clarkson Station,22/291 Ocean Keys Boulevard,Clarkson,9408 5177,9408 5177,clarksonpharmacy@iinet.net.au,M,B-N,B,V,D,,A,Thao TRAN,"7 DAYS Mon-Fri 7-6.30 
Sat, Sun & PH 9-1",WA,6030,Ms Thao TRAN,Phone,"*Approved to supply Buvidal to NS Joondalup 13/3/2020* 
*EMERGENCY USE ONLY (not be given to clients) - 0431 072 583 Thao TRAN** *Approved to receive supplies of Buvidal to dispense to patients of NS Joondalup* *Accept One-off dosing*",
Amcal Pharmacy Belmont City,3/321 Abernethy Road,Cloverdale,9277 2707,9277 2730,amcalbc@optusnet.com.au,M,B-N,B,,,BF,,,"7 DAYS M-F 8.30-9 
Sat 8.30-7 Sun 9-7",WA,6105,Mr Chun Lam Lu,{Not Stated},"*Accept One-off dosing* Formerly ""Terrywhite Chemmart Belmont City"", ""Belmont City Chemmart Pharmacy"", ""Abernethy Drive-in Chemist""",
Wizard Pharmacy Belmont,"Lot 9, 222-226 Belmont Ave",Cloverdale,9478 1819,9277 7403,kkho@wizardphy.com.au,M,B-N,B,V,,,,,7 DAYS 9-9,WA,6105,Kiat Nee Kho,Phone,,
Pharmacy 777 Cockburn,"Unit 1, 850 North Lake Road","Cockburn 
Central",9417 3170,,cockburn@pharmacy777.com.au,M,B-N,B,V,D,,,,7 DAYS 8-8,WA,6164,Ms Behnaz Fattahalhoseini,Phone,"Formerly Terrywhite Chemmart Cockburn, Caring Pharmacy Cockburn. Thomsons Lake Pharmacy",
TerryWhite Chemmart Collie,"Shops 8 & 9 Collie Central SC
Forrest Street",Collie,9734  3700,9734 3041,collpharm@westnet.com.au,M,B-N,B,,,,,,"7 DAYS M-F 8-6
Sat 8-5  Sun 11-5",WA,6225,Trevor Rowe,Phone,Formerly Collie Boulevard (Chemmart) Pharmacy,
Community Pharmacy Amcal,144 Coode St,Como,9367 1584,9367 9782,pharmacist@comopharmacy.com.au,M,,,,,,,,"7 DAYS M-F 8-7 Sat 8-5
Sun 9-3",WA,6152,Michael/Peter/Angela,Phone,Not taking new patients 18/12/20,
Pharmacy 777 Connolly,"Shop 5 Connolly SC
1 Glenelg Place",Connolly,9300 1233,9300 2883,Connolly@pharmacy777.com.au,M,B-N,B,,,,,,7 DAYS M-Sun 8-8,WA,6027,Mr Neil Norris,Phone,Reducing Program - MUST APPROACH PHARMACY MANAGER PRIOR TO REFERRING CLIENTS,
"Optimal Pharmacy Plus 
Coolbellup","Shop 1, 1 Waverley Road",Coolbellup,"9337 2904
6118 2632 ",9337 4737,oppc@westnet.com.au,M,B-N,B,,,BF,,,"7 DAYS M-F 8-9 
Sat/Sun 8-6",WA,6163,Mr Malcolm Karabatic / Jamie Lau,Phone,**EMERGENCY USE ONLY (not be given to clients) - 0408 844 376 Malcolm Karabatic**,
Woodbridge Pharmacy,37 Elanora Drive,Cooloongup,9527 2344,9527 2644,woodbridge@feelgoodpharmacies.com.au,M,B-N,B,V,D,,A,"Natalie
Willis",6 DAYS M-F 8-7 Sat 8-5,WA,6168,Natalie Willis,Phone,"*Approved to supply Buvidal to NS Rockingham 26/10/2020* 
*Formerly Friendlies Pharmacy Cooloongup,Friendlies Rockingham Elanora Drive*",
Corrigin Pharmacy,"4 Campbell Street,",Corrigin,9063 2094,9063 2754,pharmacy@corriginpharmacy.com.au,M,B-N,B,,,,,,6 DAYS M-F 9-5 Sat 9-12,WA,6375,Mrs Michelle Hooper,Phone,"**EMERGENCY USE ONLY (not be given to clients) - 0427 275 174 Michelle Hooper** 
*Accept One-Off dosing**",
Pharmacy 777 Cottesloe,"Shop 7 Ground Floor
36 Eric Street",Cottesloe,9383 4161,9383 4311,cottesloe@pharmacy777.com.au,M,B-N,B,,,,,,7 DAYS 7-8,WA,6011,Miss Kim Taylor,Phone,Seeking more clients (14/8/2018),
Pharmacy on Napoleon,32 Napoleon Street,Cottesloe,9384 8080,9384 7519,admin.pon@phcy.com.au,M,B-N,B,,,BF,,,"6 DAYS M-F 8-6 Sat 8-5
Sun 9-3",WA,6011,Mr Romeo Di Girolamo,{Not Stated},**Not taking clients 1/1/19**,
Craigie Community Chemist,"Shop 2-4 Craigie Plaza SC
Eddystone Ave",Craigie,9307 3555,9307 3587,info@craigiecommunitychemist.com,M,B-N,B,,,,,,"7 DAYS+P/H M-F 8-8
Sat 8-6 Sun 9-6",WA,6025,Mr. James Richards,Phone,*Accept One-off dosing*,
Sunlander Pharmacy,1/10 Sunlander Drive,Currambine,9304 1780,9304 1731,sunlanderpharmacy@gmail.com,,B-N,,,,,,,"6 DAYS M-Thu 8.30-7
Fri 8.30-6 Sat 8.30-2",WA,6028,Mr Ben Chau,Phone,*Suboxone only* CONFIRMED 1/1/2019,
Dalwallinu Pharmacy,"Shop 1, 25 Johnson Street",Dalwallinu,9661 2795,9661 2796,dalwallinupharmacy@gmail.com,M,B-N,B,,,,,,"6 DAYS M-F 9-5, Sat 9-12 ",WA,6609,Mr Joseph Mikhail,Phone,*Accept One-off Dosing*,
Blooms The Chemist Darch,"Shop 18, 225 Kingsway Rd",Darch,9303 9895,9303 9906,darch@blooms.net.au,M,,,,,,,,"7 DAYS M-F 8-7 
Sat/Sun 8-5",WA,6065,Daniel,Phone,Formerly United Discount Chemist Darch,
Advantage Pharmacy Florida Beach,71 Dandaragan Drive,Dawesville,9508 0992,,florida@fpgpharmacy.com.au,M,B-N,B,,,,,,"7 DAYS M-F 8.30-6,
Sat 8.30-5, Sun 10-4",WA,6211,Mr Noel Fosbery,Phone,,
TerryWhite Chemmart Florida,Tenancy 1/64 Dandaragan Drive,Dawesville,0434 368 435,,florida@twcmgroup.com,M,B-N,B,,,,,,"7 DAYS M-F 8-6, Sat 8-5, Sun 9-4",WA,6211,Guor Michar,Phone,"Formerly Chemwise Pharmacy Florida
Approved for DEPOT BPN, but only do oral formulations",
Denmark Pharmacy,"Shop 1, 20 Strickland Street",Denmark,9848 3635,9848 1711,denmarkpharmacy@bigpond.com,M,,,V,,,,,"6 DAYS M-F 8.30-5.30 
Sat 8.30-1",WA,6333,Penny Gooding,Phone,"**EMERGENCY USE ONLY (not be given to clients) - 0456 862 758 Ingrid Ayres** 
*Accept One-off dosing during Xmas & NY*",
"Kimberley Pharmacy 
Services (Derby)",PO Box 1197,Derby,9191 1160,9191 2110,derby@kimberleypharmacyservices.com.au,M,B-N,,,,,,,"6 DAYS M-F 8.30-5 
Sat 8.30-12.30 ",WA,6728,Mr Andrew Loi,Phone,Shop 2/48 Claredon Street,
Optimal Pharmacy Plus Dianella ,"Shop 50-53 Centro Dianella SC
Cnr Alexandra Dr & Grand Promenade",Dianella,9276 8484,9276 8008,pm-oppd@westnet.com.au,M,,,,,,,,"7 DAYS 8am -8pm Sat 8-5
Sun 11-5",WA,6059,Mr Robert Di Loreto,Phone,"**Not taking on new Client 5/1/21* 
Formerly Guardian Pharmacy Dianella corner of Alexandra Drive & Grand Promenade, Dianella Mob: 0403201367",
Dongara Pharmacy,"Shop 2, 30 Smith Street",Dongara,9927 1132,9927 2550,dongarapharmacy@gmail.com,M,,B,,,,,,"6 DAYS M-F 8.30-5.30 
Sat 8.30-12.30",WA,6525,Miss Naomi Klopper,Phone,"**EMERGENCY USE ONLY (not be given to clients) - 0417 178 820 Joanna Klopper** 
*Accept One-off Dosing* AKA Brian Rowe Chemist",
Donnybrook Pharmacy,78 South West Highway,Donnybrook,9731 1016,9731 1317,donnybrookpharmacy@gmail.com,M,B-N,B,,,,,,"6 DAYS M-F 8.30-5.30 
Sat 8.30-2",WA,6239,Rowan Lowe,Phone,Referral via CPP,
Duncraig Pharmacy,Shop 8/50 Marri Road,Duncraig,9447 5208,9448 0358,duncraigpharmacy6023@gmail.com,M,B-N,B,,,,,,6 DAYS M-F 8-6 Sat 8-5 ,WA,6023,Vincent Wong,{Not Stated},*Seeking new clients 19/8/19*,
Pharmacy 777 Glengarry,"Unit 1, 57 Arnisdale Road",Duncraig,9447 4482,9203 5916,glengarry@pharmacy777.com.au,M,B-N,B,,,,,,7 DAYS 8-8,WA,6023,Ms Tina Pasyar,Phone,*Accept one-off dosing*,
Dunsborough Pharmacy,"Shop 16, Centrepoint SC
55 Dunn Bay Rd",Dunsborough,9755 3272,9759 1470,scripts@dunspharmacy.com.au,,B-N,,,,,,,7 DAYS 8-6,WA,6281,John Sobkowiak,Email,*Accept One-off Dosing only from 9.30-6*,
Caring Pharmacy East Fremantle,23 / 3 Silas Street,"East 
Fremantle",9339 1259,9339 0375,eastfreo@caringpharmacy.com.au,M,B-N,B,V,D,,A,Paul Lai,"7 DAYS M-F 8-7 Sat 8-5 
Sun 9-1",WA,6158,Mr Wai Meng Chan,Phone,"**Prefer scripts to be emailed** ""Formerly East Fremantle Pharmacist Advice"" ",
Affinity Pharmacy,G/F 149 Wittenoom St,East Perth,9221 1691,9325 7130,laaanders@gmail.com,M,B-N,B,V,D,,A,"Mrs Ngoc Lan
HUYNH",5 DAYS M-F 9-5.30,WA,6004,Mrs Ngoc Lan HUYNH,Phone,,
Next Step,32 Moore St,East Perth,9219 1919,9221 3089,pharmacy.dao@health.wa.gov.au,M,B-N,B,V,D,,,,M-F 9-12,WA,6004,Thomas Duong,Phone,Only for Next Step clients,
Pharmacy 777 East Perth,"Shop 3, 81-95 Royal Street",East Perth,9325 5247,9325 5437,eastperth@pharmacy777.com.au,M,,,V,D,,A,"Andrew
Silvan",7 DAYS 8-7pm,WA,6004,Andrew Silvan,Phone,"Approved for 125 clients. Accept one-off dosing 
**EMERGENCY USE ONLY (not be given to clients) - 0438 204 070 Andrew Silvan* formerly ""Green Cross Pharmacy"" formerly ""Claisebrook Cove Pharmacy""",
"Priceline Pharmacy East 
Victoria Park",Unit 1 & 4 / 779 Albany Highway,"East Victoria 
Park",9361 1072,9470 2346,eastvicpark@theinfinitygroup.net.au,M,B-N,,,,,,,"7 DAYS M-Sat 8-6 
Sun 9-5",WA,6101,Ms Jiaqi Wu,Phone,"NO new clients Sep 2022
Formerly ""East Victoria Park Soul Pattinson Chemist""",
TerryWhite Chemmart Eaton,"Sh 15 Eaton Fair SC, Eaton Dr",Eaton,9725 2635,9725 2652,admin@twcmeaton.com.au,,B-N,,,,,,,"7 DAYS M-F 8-8 Sat 8-6 
Sun 9-6",WA,6232,Ross Darnell/Carina Telder,Email,Formerly Chemmart Pharmacy Superstore Eaton.  Not taking clients 5/10/2017.,
Home Care Pharmacy WA,"Shop 2-3 Edgewater SC
Edgewater Dr",Edgewater,9405 3794,9405 3730,admin@hcpwa.com.au,,B-N,B,,,,,,"7 DAYS M-F 8-6 Sat 8-5.30 
Sun 10-2",WA,6027,Vinh Nguyen,Phone,"**EMERGENCY USE ONLY (not be given to clients) - 0421 593 804 Andy Nguyen** 
*Formerly Edgewater Pharmacy and  Guardian Edgewater Pharmacy Plus Newsagency*",
Bradshaws Pharmacy,94B Dempster Street,Esperance,9071 3539 ,9071 6836,dispensary@bradshawspharmacy.com.au,M,B-N,B,,,BF,,,"7 DAYS M-F 8.30-5.30
Sat 8.30-1 Sun 9-12",WA,6450,,Phone,"Terry White Pharmacy Esperance provide approvals for Sunday dispensing (Terry White clients only). 
Alternative P: 9072 1204",
Castletown Chemist,"Shops 9 & 10, 67 Goldfields Road",Esperacne,9071 4480,9071 4942,office@castletownchemist.com,M,B-N,B,V,D,,A,"Rina
Sweeney","7 DAYS M-F 9-6 Sat 9-2
Sun 10-4",WA,6450,Mrs Rina Sweeney,Phone,,
TerryWhite Chemmart Esperance,"Shops 11-12 Boulevard SC
Forrest Street",Esperance,9071 2125,9071 7855,esperance@twcmgroup.com,M,B-N,B,V,D,,A,"Ryan 
Norris","6 DAYS M-F 8.30-5.30 
Thu 8.30-8 Sat 8.30-5",WA,6450,Ryan Norris,Email,"*Formerly TerryWhite Chemists Esperance* 
Accept one-off dosing Alternative phone: 6215 0287",
Exmouth Pharmacy,380 Maidstone Crescent,Exmouth,9949 1140,9949 1900,exmouthpharmacy@westnet.com.au,M,B-N,B,,,,,,6 DAYS M-F 9-5 Sat 9-1,WA,6707,Mr Andrew Twaddle,Unknown,"Accept one-offs dosing 
380 Maidstone Crescent-not for mailing 
6 days: from October 1st to June 30th, open M-F 9-5.30 and Sat 9-12.30.      
7 days: MON-SAT 9-5.30 and SUN 9-1.30 in high season (from 1st July to September 30th)  TEMPORARY PHONE NUMBER: 9949 1070",
Advantage Pharmacy Falcon,PO Box 5111,Falcon,9534 2644,6315 2664,falconpharmacy@starpharmacy.com.au,M,B-N,B,,,,,,"7 DAYS M-F 8.30-6 
Sat 8.30-5 Sun 10-4",WA,6210,Mr Noel Laurence Fosbery,Phone,"**EMERGENCY USE ONLY (not be given to clients) - 0424 408 597 Nhan** 
Postal Address: use PO Box 5111 Address: Shop 3 Miami Plaza Shopping Ctr, 633 Old Coast Rd, Falcon formerly ""Friendlies Chemists Miami Plaza"". **Please use email only**",
"Kimberley Pharmacy 
Services (Fitzroy Valley)","Fitzroy Hospital, 82 Fallon Rd",Fitzroy Crossing,9191 5308,9191 5664,fitzroy@kimberleypharmacyservices.com.au,M,,,,,,,,5 DAYS M-F 8-5,WA,6765,Ms Hannah Mann,Phone,,
Priceline Pharmacy Fremantle,7 Adelaide Street,Fremantle,9336 2277,9336 2276,pricelinepharmacyfremantle@outlook.com,M,B-N,B,,,,,,"7 DAYS M-F 8.30-6
Sat 9-5  Sun 12-4",WA,6160,Alvin,Phone,"Formerly ""Pharmacy 777 Fremantle"" ""Friendlies Chemist Fremantle"" and 
""Tom's Value Pharmacy""",
"Chemist Discount Centre 
Fremantle",38 Adelaide Street,Fremantle,9430 4899,9335 3307,WCPFREO@gmail.com,M,B-N,B,V,D,,A,"Chun Ming 
Siow","7 DAYS M-F 8-6 Sat 9-5
Sun 10-4",WA,6160,Chun Ming SIOW,Phone,"**EMERGENCY USE ONLY (not be given to clients) - 0425 768 855 Chun Ming Siow* 
Formerly ""Woolstores Community Pharmacy"" and ""Woolstores Chemmart Fremantle""",
Pharmacy 777 Fremantle,3/ 91 Hampton Rd ,Fremantle,9335 6616,9336 5216,fremantle@pharmacy777.com.au,M,B-N,B,V,D,,A,"Anton 
Variyan","7 DAYS M-F 8-7 Sat 8-4 
Sun 9-1",WA,6160,Mr Anton Variyan,Phone,"**EMERGENCY USE ONLY (not be given to clients) - 0402 277 769 Anton Variyan* 
*Accept non-violent clients only* Mobile: 0402 277 769 
*Formerly Wray Avenue Pharmacy*",
"Optimal Pharmacy Plus 
Northgate","Shop 2, Northgate Shopping Ctr,
110 Chapman Road",Geraldton,9921 6455,9964 5295,oppn@westnet.com.au,M,,B,,,,,,7 DAYS M-F 8.30-5.30 Sat 8.30-5 Sun 11-3,WA,6530,Mr Grant Hargreaves,PHone,,
Pharmacy 777 Geraldton,"Shop 4 Seacrest SC, 75 Barrett Dr",Geraldton,9921 2164,9921 8252,geraldton@pharmacy777.com.au,M,B-N,B,,,,,,6 DAYS M-F 8-6 Sat 8-4 ,WA,6530,Mr Ross Darnell,Fax,"**EMERGENCY USE ONLY (not be given to clients) - 0490 816 039 Joseph Lim** 
REFERRALS VIA CPP ONLY (1/1/19) 
Formerly ""Friendlies Geraldton"" and ""Tarcoola Pharmacy"".  **No dosing on Sundays ** ",
Rangeway Amcal Pharmacy,"Shops 1-2 Rangeway Shopping Ctr
Utakarra Road",Geraldton,9921 8111,9921 1044,rangeway@amcal.net.au,M,B-N,B,V,D,,A,Paul Buise,"6 DAYS M-F 8-6 Sat 8-1
Depot Admin on Mon/Fri only",WA,6530,Paul Buise,Phone,"Only stable Depot Admin clients.  No weekly to monthly Depot clients. 10/6/24
**EMERGENCY USE ONLY (not be given to clients) - 0448 216 138 Ross or Louise** 
""Formerly Rangeway Pharmacy"" Shop 1&2 Rangeway Shopping Centre Cnr Rifle Range Rd & Utakarra Rd, Rangeway",
Terrywhite Chemmart Bluff Point,"Shop 10 Bluff Point SC
429-437 Chapman Rd",Geraldton,9923 1584,9923 1147,mail@bluffpointpharmacy.com.au,M,B-N,B,,,BF,,,"6 DAYS M-Fri 8-6 
Sat 8.30-2",WA,6530,,Phone,*Accept one-offs dosing*  Formerly Bluff Point Chemmart Pharmacy,
Gidgegannup Pharmacy,Shop 2/2071 Toodyay Road,Gidgegannup,9578 3875,9578 3876,info@gidgepharmacy.com.au,M,B-N,B,,,BF,,,"6 DAYS M-F 8.30-5.30 
Sat 8.30-1pm",WA,6083,Ms Jana Pratico,Email,,
Health First Goldfield Pharmacy,"Shop 17-19 Marangaroo SC
70 Marangaroo Dr",Girrawheen,9342 3073,9343 6240,girra@health1stpharmacy.com.au,M,B-N,B,,,,,,"7 DAYS 8.30-7.30
Sat/Sun 8.30-7",WA,6064,Vu Tran,Phone,*Accept One-off dosing* ****** NO NEW REFERRALS******* ,
Glen Forrest Pharmacy,Shop 8/1320 Great Eastern Hwy,Glen Forrest,9298 8076,9298 9363,glenforrest@pharmacyalliance.net,M,B-N,,,,,,,"6 DAYS M-F 8.30-6 
Sat 8.30-5",WA,6071,Mr Donald Langsford,Phone,,
Pharmacy 777 Glendalough,"Shop 8-10 Glendalough Village
Cnr Harbourne St & Jon Sanders Dr",Glendalough,9444 5551,9444 7277,glendalough@pharmacy777.com.au,M,B-N,B,V,D,,A,Junhee Han,7 DAYS+P/H 8-10,WA,6016,Mr Andy Junhee Han,Phone,*Accept One-off dosing* Dosing times 0830hrs -2000hrs ,
Golden Bay Pharmacy,"Unit 1, 3 Yuin Street",Golden Bay,9537 3537,9537 3557,goldenbay.phcy@gmail.com,M,B-N,B,,,,,,"6 DAYS 8.30-5pm 
Sat 8.30-1pm",WA,6174,Kiung Fan WONG,Phone,,
Goomalling Pharmacy,37 Railway Terrace,Goomalling,9629 1542,9629 1750,info@gopharmacywa.com.au,M,B-N,B,,,,,,6 DAYS M-F 9-5 Sat 9-12,WA,6460,Mr Mark Patrick Ashton,Phone,Formerly WA Country Chemist Online *Accept one-off dosing*,
"Chemist Discount Centre 
Gosnells","PO Box 94
Shop 23D, 2158 Albany Highway",Gosnells,9398 6666,9398 1803,gosnellsdispense@procp.com.au,M,B-N,,,,,,,7 DAYS + P/H 8am-10pm,WA,6990,Gary Khoo,Unknown,"**All scripts be posted to PO BOX 94** 
*Accept One-off dosing* 
Shop 23D Gosnells Complex SC, 2158 Albany Highway, Gosnells 6110 
*Formerly Terry White Chemmart Gosnells & Chemmart Pharmacy Superstore Gosnells* ",
Pharmacist Advice Gosnells,"Shop 6, IGA Foothills SC
2251 Albany Highway",Gosnells,9398 2556,9490 1867,gosnellspharmacy@rocketmail.com,M,B-N,,V,,BF,A,Philip Tiang,"7 DAYS M-F 8-7 
Sat/Sun 9-2",WA,6110,Phillip Tiang,Phone,"Formerly Gosnells Pharmacy 
Depot Admin Thu-Fri 10-4",
Green Head Chemist,162 Ocean View Drive,Green Head,9953 1282,9953 1624,greenheadchemist@westnet.com.au,M,B-N,B,,,BF,,,5 DAYS M-F 8.30-12.30,WA,6514,Ms Thao Thi Tran,Phone,"**EMERGENCY USE ONLY (not be given to clients) - 0433 857 125 Elva Chang** 
*Accept One-off dosing*",
"TerryWhite Chemmart 
Greenwood","Shop 7, Greenwood Village SC
Calectasia Street",Greenwood,9447 7653,9243 4950,admin@greenwoodpharmacy.com.au,M,B-N,B,,,BF,,,"7 DAYS+P/H M-F 8.30-6 
Sat 8.30-5 Sun 10-5",WA,6024,Mr Ashley Paterson,Phone,"**EMERGENCY USE ONLY (not be given to clients) - 0411 692 208 Ashley Paterson** 
""Formerly Greenwood Chemmart Pharmacy"" Not taking patients currently - 02/10/19 ",
Waterhall Pharmacy,"Shop 7 Waterhall SC
9 Waterhall Road",Guildford,9377 2868,,waterhallpharmacy@gmail.com,M,B-N,B,,,,,,6 DAYS M-F 8-6 Sat 8-5,WA,6055,Mr Kim Su,Phone,REFERRALS ONLY VIA CPP.  Stable clients only (1/1/2019),
Gwelup Plaza Pharmacy,"Shop 3 Gwelup Plaza S C
709 North Beach Rd",Gwelup,9446 5755,9445 7702,dispensary.gpp@phcy.com.au,M,B-N,B,,,,,,"7 DAYS M-F 8-7
Sat 8-5.30 Sun 10-5",WA,6018,Mr Romeo Di Girolamo,Email,"SEND ALL SCRIPTS to:                                PO Box 1275, GWELUP  WA  6018  ",
The Bridge 7 Day Pharmacy (Full),10 Old Coast Road,Halls Head,9582 9256,9349 0350,team@tbpharmacy.com.au,M,,,,,,,,"7 DAYS M-F 7-9
Sat 8-6 Sun PH 9-6",WA,6210,Mr Romeo Di Girolamo,Phone,FULL - no new CLs 6 Jun 2023,
Optimal Pharmacy Plus Simms Road,"Shop 8, 8 Simms Road",Hamilton Hill,9337 7757,9314 6226,simmsroad@opplus.com.au,M,B-N,B,V,D,,A,"Peter
Zaninovich","7 DAYS M-Sun 8-8
(Dosing 9-8)",WA,6163,Mr Peter Zaninovich,Unknown,"Approved for 65 clients.
*Formerly ""Terrywhite Chemmart Hamilton Hill"" ""Greg's Discount Chemist Hamilton Hill""* 
Do not take one-off dosing",
Harvey Pharmacy,91 Uduc Road,Harvey,9729 1422,9729 1410,harveypharmacyscripts@gmail.com,M,B-N,B,,,,,,"6 DAYS M-F 8.30-6 
Sat 8.30-1",WA,6220,,Unknown,"**EMERGENCY USE ONLY (not be given to clients) - 0417 926 728 Vincent Cosentino** 
Another email address: pharmacy@harveypharmacy.com FULL 7/11/23",
Blooms The Chemist High Wycombe,"T24 & 25, 530 High Wycombe Village Shopping Ctr
530 Kalamunda Road","High 
Wycombe",9454 5798,9454 8448,highwycombe@blooms.net.au,M,B-N,B,V,D,,,,"7 DAYS M-F 8.30-6.30, 
Sat 8.30-5 Sun 11-5",WA,6057,Ms Madeleine Dennis,{Not Stated},"**EMERGENCY USE ONLY (not be given to clients) - 0407 987 352 William Caffey* 
*Formerly ""Advantage Pharmacy High Wycombe, Pharmacy 777 High Wycombe"", ""Friendlies High Wycombe"", ""Friendlies Pharmacy High Wycombe"" **Not accepting Temporary patients** Formerly ""O'Connor's Pharmacy"". Not taking any patients currently 09/07/20",
"High Wycombe Discount 
Chemist","Shop 9, 120 Wittenoom Rd","High 
Wycombe",9454 4884,9463 1478,hw.discountchemist@gmail.com,M,B-N,B,V,D,,,,"7 DAYS M-F 8-6 Sat 9-4
Sun 9-1",WA,6057,Sing Yew WONG,Phone,*Accept one-offs dosing* *Formerly Caring Pharmacy High Wycombe*,
Pharmacy 777 High Wycombe,33 Newburn Road,"High 
Wycombe",9454 7572,9454 9351,highwycombe@pharmacy777.com.au,M,B-N,B,,,,,,"6 DAYS M-F 8-6 
Sat 8.30-5",WA,6057,Mr Ryan Cottone,Phone,*Accept One-off dosing*,
Pharmacy 777 Whitford City,"Shop 42 Whitford City SC
Whitfords Avenue",Hillarys,9401 6669,9307 4799 ,whitfordcity@pharmacy777.com.au,M,B-N,B,,,,,,7 DAYS+P/H 7-11,WA,6025,Mr. Robert Ayad,Phone,,
"TerryWhite Chemmart
Whitford City","Shop 243 Whitford City SC
Cnr Whitfords Ave & Marmion Ave",Hillarys,9401 8466,9402 3908,dispensary.whitfordcity@twcmgroup.com,M,B-N,B,,,,,,"7 DAYS M-F 8.30-6 
Sat 8.30-5 Sun 11-5",WA,6025,Miss Alison McGuinness,Phone,*Formerly TerryWhite Chemists Whitford City* Accept one-off dosing,
Pharmacy 777 Hilton,300 South Street,Hilton,9337 1434,9331 6813,hilton@pharmacy777.com.au,M,B-N,,,,,,,7 DAYS+P/H 8AM -10PM,WA,6163,,Unknown,,
Superchem Hocking,"Shop 2 Wyatt Grove SC
100 Gungarra Ave",Hocking,9405 3979,9404 5964,hocking@superchem.com.au,M,B-N,B,,,BF,,,"7 DAYS M-F 8-8, Sat 8-5
Sun 11-5",WA,6065,Mr Pak Yew Wong,Phone,*Accept one-off dosing* Also email scripts to pak.wong@superchem.com.au,
Caring Pharmacy Huntingdale,"Suite 2 Spencer Road Medical Ctr
Cnr Spencer & Warton Rd",Huntingdale,9493 1800,9452 1256,huntingdale@caringpharmacy.com.au,M,B-N,B,V,D,,,Sue Yee TEE,"7 DAYS M-F 8-7
Sat/Sun 8-5",WA,6110,Sue Yee Tee,Phone,"**EMERGENCY USE ONLY (not be given to clients) - 0421 994 899 Sun Yee TEE** 
Formerly ""Huntingdale Pharmacist Advice""",
Huntingdale Village Pharmacy,Shop 2/3 5 Pipit Close,Huntingdale,9490 5522,9490 6434,huntpharm@westnet.com.au,M,B-N,B,V,,,,,6 DAYS M-F 9-6 Sat 9-2,WA,6110,Mrs Harsha Nidagal,Phone,,
Pharmacy 777 Inglewood,"1 / 898 Beaufort Street,",Inglewood,9271 1130,9371 1150,inglewood@pharmacy777.com.au,M,B-N,B,,,,,,7 DAYS+P/H 8-8,WA,6052,Minh Vuong,Phone,"**EMERGENCY USE ONLY (not be given to clients) - 0401 258 552 Minh VUONG** 
*Formerly ""Friendlies Inglewood"",  ""Inglewood Pharmacy""",
Innaloo Discount Drug Store,52A & B Ellen Stirling Boulevard,Innaloo,9445 8188,9204 3042,innaloo@discountdrugstores.com.au,M,B-N,,,,,,,"7 DAYS M-F 8.30-6.30 
Sat 8.30-5 Sun 11-5",WA,6018,Giovanna Cecchele,{Not Stated},**EMERGENCY USE ONLY (not be given to clients) - 0403 185 581 Que-anh Langcay**,
Morris Compounding Pharmacy,12A Morris Place,Innaloo,9446 9858 ,9446 1856,morrispharmacy@bigpond.com,M,B-N,B,,,BF,,,7 Days 8.30-6.30,WA,6018,John Lagana,{Not Stated},**EMERGENCY USE ONLY (not be given to clients) - 0419 922 460 John Lagana**,
Wizard Innaloo Pharmacy,"Shop 1113 Westfield SC
Ellen Stirling Blvd",Innaloo,9204 2152,6316 1401,innaloo1@wizardphy.com.au,M,B-N,B,,,,,,"7 DAYS M-F 8.30-7
Sat 8.30-5 Sun 11-5",WA,6018,Mr Aaron Van Vliet,Phone,"Previously Terry White Chemmart Innaloo** Nil patients, not taking any patients 
**Taking clients from Medicine Box",
Pharmacy 777 Jindalee,"Unit 3-5 Jindalee CC
6 Jindalee Boulevard",Jindalee,9562 3790,9562 3791,jindalee@pharmacy777.com.au,M,B-N,,V,D,,,,7 DAYS M-Sun 7-11pm,WA,6036,Danielle Walker,Phone,Accept one-off dosing *Formerly Jindalee Pharmacy* Seeking new clients (2/4/19),
HPS Pharmacies Lakeside,"G/F Medical Centre West
Joondalup Health Campus
60 Shenton Avenue",Joondalup,6369 8450,8375 3504,lakeside@hpspharmacies.com.au,M,B-N,,,,,,,"7 DAYS M-F 8.30-7 
Sat-Sun 9-5",WA,6027,Mrs Atefeh Eshghabadi,Phone,,
Wizard Pharmacy Joondalup Dr,Shop E5 Lakeside Joondalup SC,Joondalup,9301 5300,9301 5400,pm.joondalup2@wizardphy.com.au,M,B-N,B,,,,,,7 DAYS 9-7.30,WA,6027,Mr Francesco Napoli,Phone,,
Caring Pharmacy Joondanna,"Suite 1, 21 Wanneroo Road",Joondanna,9444 1564,9242 2938,Joondanna@caringpharmacy.com.au,M,B-N,B,,,,,,"7 DAYS M-F 8-7 
Sat 8-5 Sun 10-3",WA,6060,Paul Lai,Unknown,"Accept one-off dosing Formerly ""Joondanna Pharmacy"", ""Friendlies Chemists Joondanna"" ""Hywoods Pharmacy""",
Jurien Pharmacy,"Shops 2-4 Jurien Bay SC
24 Bashford St",Jurien Bay,9652 1333,9652 1572,jurpharm@westnet.com.au,M,B-N,,,,,,,"6 DAYS M-Fri 8.30-5.30 
Sat 8.30-12.30",WA,6516,Jim Grehan,Unknown,,
Hills View Pharmacy Kalamunda,2/37 Elizabeth Street,Kalamunda,9293 1061,9293 1803,hillsview@medsolutions.net.au,M,B-N,B,,,BF,,,"7 DAYS M-Thu 8.30-7.30 
Fri 8.30-6.30
Sat/Sun 8.30-12.30",WA,6076,Gary / William,Phone,Not taking patients currently 06/07/20,
"Nightingales Pharmacy
Kalamunda","Shop 2, Kalamunda Glades SC
123 Canning Rd",Kalamunda,9293 2621,9293 1093,Dispensary@nightingales.net.au ,M,B-N,B,,,,,,7 Days+P/H 8-9,WA,6076,Miss Alexandra Bologa,Unknown,"**EMERGENCY USE ONLY (not be given to clients) - 0400 542 536 Michael Norden* 
FULL 06/07/20",
"O'Hara's Pharmacy 777 
Kalamunda","7 Haynes Street,",Kalamunda,9293 1412,9257 1590,kalamunda@pharmacy777.com.au,M,,,,,,,,"7 DAYS M-F 8-6 Sat 8-5 
Sun 9-5",WA,6076,Andrew Mason,Unknown,Formerly O'Hara's Pharmacy,
Priceline Pharmacy Kalamunda,"Shop 25 Kalamunda Central SC
39 Railway Rd",Kalamunda,9293 4947,9293 3369,"dispensary@
pricelinepharmacykalamunda.com",,B-N,,,,,,,"7 DAYS M-F 8.30-6
Sat 8.30-5 Sun 11-4",WA,6076,Khean Wong,Phone,Seeking clients 3/7/2020 Suboxone only,
Kalbarri Pharmacy,"Shop 1 Kalbarri Lane
42 Grey St",Kalbarri,9937 1026,9937 2050,kalbarripharmacy42@yahoo.com,M,B-N,,,,,,,6 DAYS M-F 9-5 Sat 9-1,WA,6536,Mr Jung Vo,Unknown,**EMERGENCY USE ONLY (not be given to clients) - 0402 884 138 Andrea D'Souza**,
Wizard Pharmacy Hannans,"Shop 2-5, Hannans Boulevard SC
89 Graeme St",Kalgoorlie,9022 2200,9022 2290,pm.kalgoorlie3@wizardphy.com.au,M,B-N,B,,,BF,,,"6 DAYS M-F 8.30-5.30
Sat 8.30-2",WA,6430,Brooke Dziubak,Phone,"Formerly Amcal Chemist Hannans, Savings Plus Chemist Kalgoorlie and 
Hannans Boulevard Pharmacy, Hannans Guardian Pharmacy",
"Wizard Pharmacy Kalgoorlie 
Central",205 Hannan Street,Kalgoorlie,9000 3060,9021 0295,"dispensary.kalgoorlie1@wizardphy.com.au
pm.kalgoorlie1@wizardphy.com.au",M,B-N,B,V,D,,A,"Elise 
Wheadon",7 DAYS 8-8,WA,6430,Elise Wheadon,Unknown,"**EMERGENCY USE ONLY (not be given to clients) - 0400 817 074 Elise Wheadon*
'Formerly Amcal Chemist Kalgoorlie'",
Dove's Pharmacy,"Suite 3 276 Dampier Avenue
Whitfords Medical Centre",Kallaroo,9307 4555,9307 7889,contact@dovespharmacy.com.au,M,B-N,,V,,,,,"7 DAYS M-F 8-6.30
Sat 9-3 Sun 9-1",WA,6025,Mr Kiro Saweres,Phone,"Please contact first to arrange dosing. ** Do not take temporary patients *
Looking for more patients 22/11/19",
Pharmacy 777 Karratha,"PO Box 1536
Shop 33-34 Karratha Village SC
Sharpe Ave",Karratha,9144 4007,9144 4664,karratha@pharmacy777.com.au,M,B-N,B,V,D,,A,"Tommy
Metcalfe",7 DAYS 8-8 ,WA,6714,Mrs Laura Stewart,Phone,"*Accept One-off dosing* **Dosing only on Mon-Fri** **Weekends dosing need neg** 
Shop 33 & 34 Karratha Village Shopping Centre, Sharpe Street, Karratha 6714",
Karrinyup St Luke Pharmacy,2/57 Burroughs Road,Karrinyup,9341 7009,9117 2044,admin@stlukepharmacy.com.au,M,B-N,B,,,,,,"7 days M-F 7-9pm 
Sat-Sun 8-6",WA,6018,Youssef TAKLA,Phone,,
"Great Southern Community 
Chemist","Shop 1, 132 Clive Street",Katanning,9821 8016,9821 8017,gscchemist@gmail.com,M,B-N,B,,,BF,,,"6 DAYS M-F 8.30-5.30, 
Sat 8.30-12",WA,6317,Mr Paul Buck,Phone,*Not taking new clients 22 Nov 2017* ,
Katanning Pharmacy,92 Clive Street,Katanning,9821 1677,9821 7009,info@katanningpharmacy.com.au,M,B-N,B,,,,,,"6 DAYS M-F 8.30-5.30 
Sat 9-12",WA,6317,Mr Paul Buck,Unknown,,
Kellerberrin Pharmacy,92 Massingham Street,Kellerberrin,9045 4306,9045 4376,kellerberrin.phcy@gmail.com,M,B-N,B,,,,,,6 Days M-F 9-5 Sat 9-12,WA,6410,Yung Hong LAU Henry,Phone,*Accept One-off Dosing*,
"Wizard Pharmacy Kelmscott 
Stargate","Shop 8-9 Stargate SC
2784 Albany Highway",Kelmscott,9390 9911,9495 1370,"dispensary.kelmscott2@wizardphy.com.au
pm.kelmscott2@wizardphy.com.au",M,B-N,B,,,,,,7 DAYS+P/H 8-9,WA,6111,Roslyne Currell,Email,*Accept one-off dosing*,
Kenwick Pharmacy,"Shops 4-6 Kenwick Village SC
Cnr Belmont & Kenwick Rd",Kenwick,9459 5936,9459 5936,kenwickpharmacy@gmail.com,M,B-N,B,,,,,,"7 DAYS M-F 7.30-8.30
Sat 8-7 Sun 12-5",WA,6107,Laura,Phone,Mobile: 0411 233 197 Only will have 4 meth and 4 bup and one time,
TerryWhite Chemmart Kingsley,"Shop A10 Kingsley Village SC
100 Kingsley Dr",Kingsley,9409 7373,9409 1015,kingsley@twcmgroup.com,M,B-N,B,,,,,,"7 DAYS M-F 8-7 Sat 8-5
Sun 9-5",WA,6026,Ms Nerida Gardner,Phone,"**EMERGENCY USE ONLY (not be given to clients) - 0468 958 234 Nam Vuong** 
Formerly 'Kingsley Village Pharmacy' 'Kingsley Village Discount Drug Store'",
Kojonup Pharmacy,114 Albany Highway,Kojonup,9831 1035,9895 6419,kojonup.pharmacy@gmail.com,M,B-N,B,,,,,,"6 DAYS M-F 8.45-5.15 
Sat 8.45-12",WA,6395,Mrs Sally McMahon,Unknown,**EMERGENCY USE ONLY (not be given to clients) - 0439 311 036 Bruce Warland**,
Koondoola Pharmacy,"Shop B1, 34 Koondoola Ave",Koondoola,9342 5720,9343 2194,koondoolapharmacy@westnet.com.au,M,B-N,B,,,,,,"7 DAYS M-F 9-6 Sat 9-4
Sun 9-12",WA,6064,Mr John Lane,Phone, ,
Kununurra Amcal Pharmacy,64 Konkerberry Drive,Kununurra,9168 1111,9168 1398,kpharm@iinet.net.au,M,B-N,B,V,D,,A,"Gareth 
Gearon",6 DAYS M-F 9-5.30 Sat 9-1,WA,6743,Gareth Gearon,Unknown,"Formerly ""Kununurra Amcal Pharmacy""",
Priceline Pharmacy Kwinana,PO Box 39,"Kwinana Town
Ctr",9419 1445,9439 1151,pricelinepharmacykwinana@gmail.com,M,B-N,B,,,,,,"7 DAYS M-F 8-6 Thu 8-8
Sat 8-5 Sun 11-5",WA,6966,,Phone,"**EMERGENCY USE ONLY (not be given to clients) - 0438 984 575 Vanessa Bolton or 
0447 024 959 Tri Vo** 
*Not taking LongTerm new clients 11/6/19* 
Shop T23/24 Kwinana Hub Shopping Centre, 4 Chisholm Avenue, Parmelia 
Formerly Marketplace Pharmacy Kwinana, The Hub Soul Pattinson and Health Etc. Kwinana",
Lake Grace Community Pharmacy,27 Stubbs Street,Lake Grace,9865 2641,9822 2133,admin@lakegracepharmacy.com.au,M,B-N,B,,,,,,"6 DAYS M-F 9-5.30
Sat 9-12",WA,6353,Shashidhara Holla Balekudru,Phone,,
Lancelin Pharmacy,PO Box 334,Lancelin,9655 2777,9655 2888 ,lancelinpharmacy@bigpond.com,M,B-N,B,,,BF,,,6 DAYS M-F 9-5 Sat 9-12,WA,6044,,Phone,"**EMERGENCY USE ONLY (not be given to clients) - 0419 912 394 John Brinklow* 
Shop 2, 119 Gingin Road Please contact Pharmacist prior to any referral - local, stable clients only",
"Landsdale Compounding 
Pharmacy",21A The Broadview,Landsdale,9302 5577,9302 5566,erx@rkpharmacy.com.au,M,,,,,,,,"7 DAYS M-F 7-9 
Sat/Sun 9-8",WA,6065,Ravin Pushpalingam,Phone,*Formerly Landsdale Guardian Pharmacy*,
Pharmacy 777 Langford,"Unit 3 & 4, 76 Langford Ave",Langford,9350 5447,9350 5546,langford@pharmacy777.com.au,M,B-N,B,V,,,,,7 DAYS+P/H 8-10,WA,6147,Tina Jolly,Phone,*Accept One-off dosing* ,
Leeman Pharmacy,4 Spencer Street,Leeman,9953 1177,9953 1188,leemanpharmacy@westnet.com.au,M,B-N,B,,,,,,6 DAYS M-F 9-5 Sat 9-12,WA,6514,Mr Thao Tran,Phone,*Accept One-off dosing*,
Pharmacy 777 Lesmurdie,"Shop 15 Lesmurdie Village SC
35 Sanderson Rd",Lesmurdie,9291 7470,,lesmurdie@pharmacy777.com.au,M,B-N,B,,,,,,"7 DAYS M-F 8-7, Sat 8-5, 
Sun 9-1",WA,6076,Voon HUONG,{Not Stated},,
Pharmacy 777 Lynwood,"Shop 6-9 Lynwood Village SC
6 Lynwood Ave",Lynwood,9458 3768,9358 3500,lynwood@pharmacy777.com.au,M,B-N,B,V,D,,A,Natalie Willis,"7 DAYS M-Wed, Fri 8-7
Thu 8-8 Sat 8-6 Sun 10-2
Depot Admin Wed/Fri 8.30-6.30",WA,6147,Mrs Natalie Willis/Ashton,Phone,"**EMERGENCY USE ONLY (not be given to clients) - 0410 304 364 Natalie Willis** 
Accept One-off dosing
Formerly ""Lynwood Friendlies Pharmacy"" ""Lynwood Soul Pattinson Chemist""
Mobile: 0410304364",
Pharmacy 777 Maddington,Unit 4 / 2 Sheoak Road ,Maddington,9459 6179,9493 5447,maddington@pharmacy777.com.au,M,,B,,,,,,"7 DAYS M-F 8.30-6
Sat 8.30-5 Sun 10-4",WA,6109,Mr Christian Rossi,Email,"No new clients 19 Aug 2024
**EMERGENCY USE ONLY (not be given to clients) - 0405 836 225 Christian Rossi** 
*Formerly Friendlies Maddington and Maddington Village Pharmacy* 
Chemist prefer sending scripts and/or ID via EMAIL (11/4/2014)",
Mandurah Central Pharmacy,"Shop 1, 10 Sholl Street",Mandurah,9535 1017,9535 6000,dispensary@mcpharmacy.net.au,M,B-N,B,,,,,,"6 DAYS M-F 8.30-5.30 
Sat 8.30-5",WA,6210,Mr Alan Hipper,Unknown,"*Accept One-off dosing* Formerly 'Priceline Pharmacy Mandurah' 
Formerly 'Friendlies Chemist Mandurah'",
Mandurah Wholelife Pharmacy and Healthfoods,38-42 Minilya Parkway,Mandurah,9535 1422,9535 1466,mandurah@wholelife.com.au,M,B-N,B,,,BF,,,"7 DAYS M-F 8-6
Sat 8-2 Sun 9-2",WA,6210,,Phone,"Formerly ""Discount Warehouse Drugstore Mandurah""
Accept One-off dosing* Full - not taking clients 30/06/21",
Pharmacy 777 Mandurah,PO Box 3426,Mandurah,9534 9000,9534 9055,mandurah@pharmacy777.com.au,M,B-N,B,V,D,,A,"Wesley
Williams",7 DAYS+P/H 8am-8pm,WA,6210,Wesley Williams,Phone,"Approved for 100 clients.
*Formerly Pharmacy 777 Mandurah*  *Accept one-off dosing* 
Unit 4, 10 Dower Street, Mandurah",
Priceline Pharmacy Mandurah East,"Shop G061, 330 Pinjarra Road",Mandurah,9581 5840,9535 1019,mandurah@theinfinitygroup.net.au,M,B-N,B,V,D,,A,Garima Singh,"7 DAYS M-F 8.30-6 
Sat 8.30-5 Sun 10-4",WA,6210,Garima Singh,Phone,,
TerryWhite Chemmart Peel,"Shops 1-3 Mandurah City SC
16 Sholl St",Mandurah,9535 2222,9535 2206,twcpeelpharmacy@gmail.com,M,B-N,B,V,D,,A,"Emmanuel
Ungat","7 DAYS M-Sat 8-8
Sun 9-8",WA,6210,Emmanuel Ungat,Unknown,"Approved for 90 clients.
Formerly ""Peel Chemmart Pharmacy**",
Wizard Pharmacy Mandurah,"Shop 12 Sands SC
175-179 Mandurah Terrace",Mandurah,9535 2134,9535 2798,pm.mandurah1@wizardphy.com.au,M,,,,,,,,7 DAYS 8-7,WA,6210,,Fax,"**EMERGENCY USE ONLY (not be given to clients) - 0420 359 800 Michael de Brouwer** 
Not taking new clients 1/1/2019 
Formerly ""Wizard Warehouse Pharmacy Mandurah"" Mobile: 0403205502",
Ambassadors Pharmacy,"Shop 9, Bldg 2, Manjimup SC, 
93-101 Mottram St",Manjimup,9771 1373,9771 8140,ambassadors@manjimuppharmacy.com,M,,,,,,,,"7 DAYS M-F 8.30-6 
Sat 8.30-1 Sun 11-4",WA,6258,Mr William Green,Phone,3 clients at present  Not taking new clients 20/12/18,
"Pharmacy 777 Manjimup
",4 /79 Giblett St,Manjimup,9771 1357,,manjimup@pharmacy777.com.au,M,B-N,B ,V,D,,A,"William 
Green","7 DAYS M-F 8-5.30 
Sat-Sun 8-2",WA,6258,William Green,Phone,Closed on Christmas day and Good Friday.,
Priceline Pharmacy Margaret River ,146 Bussell Highway,"Margaret 
River",9757 2224,9757 3351,dispense2@pharmacymr.com.au,M,B-N,B,,,,,,7 DAYS+P/H 8-6,WA,6285,Karen Cheah,Phone,"*Formerly Margaret River Pharmacy* *Accept One-off Dosing* 
EMERGENCY CONTACT (NOT TO BE GIVEN TO PATIENTS): Karen 0438 009 809",
Pharmacy 777 Margaret River,"Shop 1 Meeka House
101 Bussell Highway","Margaret 
River",9757 3688,9757 3188,margaretriver@pharmacy777.com.au,M,B-N,B,V,D,,A,"Mrs Ingrid 
Manson",7 DAYS+P/H 8-8,WA,6285,Ms Ingrid Manson,Phone,*Accept One-off dosing* Mobile: 0419367777,
Amcal Pharmacy Maylands,"Part of Maylands Medical Ctr
50-54 Eighth Avenue",Maylands,9370 3000,9370 3194,maylands@amcal.net.au,M,,,,,,,,"6 Days M-F 8.30-6 
Sat 8.30-5",WA,6051,Kevin Vee Ern Foo,Phone,"**EMERGENCY USE ONLY (not be given to clients) - 0402 025 988 Kevin Foo** 
Formerly ""Friendlies Pharmacy Maylands""",
"Clinicare Compounding 
Pharmacy Maylands",245 Guildford Road,Maylands,9370 4410,9471 7115,info@maylandscompounding.com.au,M,B-N,B,,,,,,"7 DAYS M-F 8-7 Sat 8-5.30 
Sun 9-1",WA,6051,Yuen Chun LEE,Phone,*Accept One-off dosing*,
Pharmacy 777 Maylands,"Shop 3 Maylands Park SC
238 Guildford Rd",Maylands,9271 5659,9272 5231,maylands@pharmacy777.com.au,M,B-N,B,V,D,,A,"Storm
Meacock",7 DAYS+P/H 8-10,WA,6051,Thom,Phone,"**EMERGENCY USE ONLY (not be given to clients) - 0419 193 373 Storm Meacock** 
Accept One-off dosing* Alternative number 9271 1533",
Meekatharra Pharmacy,72 Main Street,Meekatharra,9980 1798,9981 1709,meekapharmacy@gmail.com,M,B-N,B,,,,,,6 DAYS M-F 9-5 Sat 9-1,WA,6642,Danielle Brown,Phone,"**EMERGENCY USE ONLY (not be given to clients) - 0437 720 321 Danielle Brown** 
Accept One-off dosing, advise in advance for ordering stock",
Merredin Pharmacy,102 Barrack St,Merredin,9041 1311,9041 1023,merredinpharmacyscripts@gmail.com,M ,B-N,B,,,,,,"6 DAYS M-F 8.30-5.30 
Sat 8.30-12.30",WA,6415,Wayne Ingrilli,Email,Formerly Savings Plus Chemist Merredin.  Accept one-off dosing.,
Midland Drive-In Pharmacy,280 Great Eastern Highway,Midland,9274 2972,9250 2543,mdip@live.com.au,M,B-N,B,V,D,,A,"Miss Brooke
Goddard",6 DAYS M-F 8-6 Sat 8-1,WA,6056,Nick,Phone,,
"Midland Pharmacy &
 Compounding Centre",10 / 401 Great Eastern Hwy,Midland,6270 7481,6270 7480,info@midlandpharmacy.com.au,M,B-N,B,,,,,,5 DAYS 8-6,WA,6056,William Safar,Phone,,
Optimal Pharmacy Plus Midland,"Shop 8, 295 Great Eastern Hwy",Midland,9274 1001,9274 3733,oppmi@westnet.com.au,M,B-N,B,V,D,,A,"Peter
Zaninovich",7 DAYS M-Sat 8-6 Sun 8-5,WA,6056,Mr Peter Zaninovich,Phone,"Approved for 100 clients.
 *Approved to supply Buvidal to NS Midland 1/9/2020*",
"Pharmacy 777 Centrepoint 
Midland","Shop 17 Centrepoint SC
Great Eastern Highway",Midland,9274 7767,9274 7779,midland@pharmacy777.com.au,M,B-N,B,V,D,,A,Eric Thow,7 DAYS+P/H 8am-10pm,WA,6056,Mr Andrew Ngeow,Phone,Approved for 80 clients.,
Mindarie Keys Pharmacy,Shop 8 / 36 Anchorage Drive,Mindarie,9407 7166,9407 7199,mindariepharmacy@outlook.com,M,B-N,,,,,,,7 DAYS 8-8,WA,6030,Karen Johnson,Phone,Does not do one-off dosing,
Superchem Mirrabooka Village,"Shop 9 Mirrabooka Village SC
Honeywell Boulevard",Mirrabooka,9249 1124,9248 2020,mirrabooka@superchem.com.au,M,,,,,,,,7 DAYS 8-8,WA,6061,Chloe Tan,Phone,,
Moora Community Pharmacy,7 Dandaragan Street,Moora,9651 1252,9651 1998,moorapharmacy@iinet.net.au,M,B-N,,,,,,,"6 DAYS M-F 8.30-5.30
Sat 8.30-1",WA,6510,John Lagana,Phone,Formerly Savemor Pharmacy Moora,
Just Pharmacy Morley,1/40 Rudloc Road,Morley,9276 1395,9276 5191,justpharmacymorley@ppsportal.com.au,M,,,,,,,,"7 DAYS M-F 7-8
Sat/Sun 8-8pm",WA,6062,Sepida Rahmani,Phone,"*Accept one-offs dosing* 
EMERGENCY USE ONLY (not be given to clients) - 0402 544 570 Sepideh 
Formerly Morley Budget Chemmart* Seeking additional clients Mobile: 0413121146",
Pharmacy 777 Morley,"Shop 2 & 3, 127 Crimea Street",Morley,9276 1183,9276 1455,morley@pharmacy777.com.au,M,B-N,B,,,,,,7 DAYS 8-8,WA,6062,Mr Robert Ayad,Phone,,
Mosman Drive-In Chemist,590 Stirling Highway,Mosman Park,9384 0219,9385 2057,dispensary@mosmandriveinchemist.com,M,B-N,B,,,,,,7 DAYS 8-8,WA,6012,Mr John Fountain,Unknown,**EMERGENCY USE ONLY (not be given to clients) - 0422 794 130 Jason CHEW**,
Mt Barker Country Chemist,23 Lowood Rd,Mount Barker,9851 1010,9851 2011,mbccdispensary@alliancepharmacy.com.au,M,,,,,,,,"6 DAYS M-F 8.30-5.30 
Sat 8.30-12.30",WA,6324,SIMON/JOHN,Email,"*Accept one-off dosing* Mobile: 0456 081 510 (contact nr in case the landline is not working) 
Formerly ""Mount Barker Pharmacy""",
Pharmacy 777 Mt Hawthorn,159A Scarborough Beach Rd,"Mount 
Hawthorn",9444 1423,9444 1561,mthawthorn@pharmacy777.com.au,M,B-N,B,,,,,,7 DAYS 7-8,WA,6016,Minh-Van Ngo,Unknown,**EMERGENCY USE ONLY (not be given to clients) - 0433 381 511 Chloe**,
Beaufort Chemist,647 Beaufort Street,"Mount 
Lawley",9328 7775,9328 7745,info@beaufortchemist.com.au,M,B-N,B,,,,,,7 DAYS+P/H 7am - 2am,WA,6050,Mita Shah,Unknown,"*Not taking new clients 17/1/24*  *will NOT take one offs* 
Approved for DEPOT BPN, but only do oral formulations
Limited dosing hours - clients must attend for interview before accepted - METHADONE and SUBOXONE FILM ONLY 
Formerly ""Beaufort St 24Hour Chemist""",
Epic Pharmacy Mt Lawley,"St John of God Hospital
Thirlmere Rd","Mount 
Lawley",9370 9882,9370 9880,mtlawley@epicpharmacy.com.au,M,B-N,B,,,BF,,,"6 Days M-F 8.30-5.30 
Sat 9-12",WA,6050,John Forster,{Not Stated},St John of God Hospital Patients ONLY,
The Dispensary Mount Lawley,"Unit 1, 777 Beaufort Street","Mount 
Lawley",9271 1956,9473 0582,dispensary.td@tassone.com.au,M,B-N,B,V,D,,A,"Mr Alberto
Tassone","7 DAYS M-F 8.30-7
Sat/Sun 8.30-5
Depot Admin Tue,W,F 12-5
Thu 10-2, Sat 10-3",WA,6050,Mr Robert Tassone,Phone,Formerly Mount Lawley Pharmacy & Health Foods,
Mundaring Amcal Pharmacy,"Shop 4, 5 Nicol St",Mundaring,9295 1063,9295 1708,mundaring@amcal.net.au,M,B-N,B,,,BF,,,"7 DAYS M-F 8-8 Sat 8-5 
Sun P/H 8.30-5",WA,6073,Meryl Paterson,{Not Stated},"**EMERGENCY USE ONLY (not be given to clients) - 0418 901 195 Meryl Paterson** 
Accept One-off dosing",
Mundaring Village Pharmacy,"Shop 11, 7295 Great Eastern Hwy",Mundaring,9295 0889,9295 0882,info@mundaringpharmacy.com.au,M,B-N,B,,,,,,"7 DAYS M-F 8-6
Sat 8-5 Sun 10-3",WA,6073,Ms Jana Ann Practico,Phone,Not taking new clients 24/5/19,
Mundijong Pharmacy,"Shop 2, 40 Paterson Street",Mundijong,9526 0682,9525 5778,mundijongpharmacy@gmail.com,M,B-N,B,,,,,,"7 DAYS M-F 8-10
Sat/Sun 9-2",WA,6123,Mr David Tran,Phone,*Not taking new clients 16/9/19*,
Fiona Stanley Hospital Pharmacy,11 Robin Warren Drive,Murdoch,6152 3140,,barry.jenkins@health.wa.gov.au,,,,V,,,,,7 DAYS M-F 8.30-4.30 Sat-Sun 9.00-2.00pm,WA,6150,Mr Barry Jenkins,Phone,,
Myaree Pharmacy,"Shop 10 North Lake SC
67 North Lake Rd",Myaree,9330 3467,9330 2159,myareepharmacy@gmail.com,M,,,,,,,,"7 DAYS M-F 8-7 Sat 8-6
Sun 9-5",WA,6154,Simon Woo,Email,"*Seeking new clients 19/8/19* ""Formerly Optimal Pharmacy Plus Myaree""",
Narembeen Pharmacy,1/19 Churchill Street,Narembeen,9064 7373,9064 7300,narembeenpharmacy@live.co.uk,M,B-N,B,,,,,,5 DAYS M-F 9-5,WA,6369,Dennis Kian,{Not Stated},*Formerly Clinicare Pharmacy Narembeen*,
Narrogin Guardian Pharmacy,PO Box 105,Narrogin,9881 1006,9881 2116,narrogin@guardianpharm.net,M,B-N,,,,,,,"6 DAYS M-F 8.30-6 
Sat 8.30-12.30",WA,6312,Mr Nikhil Patel,Unknown,"*Accept one-off dosing* 74 Federal Street, Narrogin Formerly Maxwells Pharmacy",
Broadway Fair Pharmacy,"Broadway Fair SC, 88 Broadway",Nedlands,9386 1355,9389 9485,admin@broadwayfairpharmacy.com.au,M,B-N,B,,,BF,,,"7 DAYS M-F 8.30-7
Sat 8.30-6 Sun 10-3",WA,6009,Chi Yen Chia,Phone,Approved but not doing CPOP,
Boulevard Pharmacy,PO Box 302,Newman,9175 2207,9262 3006,boulevard@newmanpharma.com.au,M,B-N,,,,,,,"6 DAYS M-F 9-6 Thu 9-7 
Sat 8.30-4 ",WA,6753,Ms Elizabeth Hyde,Unknown,"*Accept One-off Dosing** Shop 19 Boulevard Shopping Centre Newman Drive, Newman 
Public Holidays closed",
Hilditch Pharmacy,"Shop 6 Parnawarri SC, 1 Lee Lane",Newman,9175 5927 ,9262 3006,hilditchpharm@gmail.com,M,B-N,,,,,,,6 DAYS M-F 9-6 Sat 9-4,WA,6753,Elizabeth Hyde,{Not Stated},,
"Nollamara Compounding 
Pharmacy 777",51 Nollamara Avenue,Nollamara,9349 1201,9344 2002,"nollamaracompounding@
pharmacy777.com.au",M,B-N,B,,,,,,"7 DAYS 8-6 
Dosing 8.30-5.30 ",WA,6061,Somayyeh / Lisa,Phone,"Seeking new patients 18/05/20 
EMERGENCY USE ONLY (not be given to clients) - 0402 457 292 Lisa Nguyen 
Mobile: 0421 953 083 - emergency only Formerley ""Healthlink Nollamara""",
Pharmacy 777 Nollamara,"Shop 24 Nollamara SC
84 Hillsborough Dr",Nollamara,9349 1570,9440 4811,nollamara@pharmacy777.com.au,M,B-N,B,,,,,,7 DAYS+P/H 8-10,WA,6061,Neil Norris,Phone,"*Accept one-off dosing* 18/05/20: Not accepting patients, at capacity",
TerryWhite Chemmart Noranda,"Shop 49 Noranda Palms SC
Cnr McGilvray & Benara Rd",Noranda,9375 1251,9275 1351,dispense@norandachemmart.com.au,M,,,,,,,,"7 DAYS M-F 8.30-8.30
Sat-Sun 8.30-7pm",WA,6062,Andrew Downey,Phone,"No new referrals Sep 2023
**EMERGENCY USE ONLY (not be given to clients) - 0409 884 412 Andrew Downey 
Accept One-off dosing*, Formerly Noranda Chemmart Pharmacy, 
Alternate Email: noranda@terrywhitechemmart.com.au",
Greenleaf Pharmacy North Beach,"Shop 10 West Coast Plaza
1 North Beach Rd",North Beach,9447 1419,9448 6925,script.northbeach@greenleaf.au,M,B-N,B,,,,,,7 DAYS M-F 7am-8pm,WA,6020,Mr Stuart Alexander,Unknown,"Formerly West Coast Plaza Chemist, Formerly North Beach Pharmacy
Program Full - Suboxone only clients by referral (as at 1/1/2019)",
"Leighton Beach Drive-In 
Pharmacy","108 Stirling Highway,","North 
Fremantle",9335 1191,9335 1044,leightonbeachchemist@gmail.com,M,B-N,B,,,,,,"7 DAYS M-F 8-7
Sat 8.30-7 Sun 8.30-5",WA,6159,Yeen Na Wee,Unknown,,
"Michael's Health Care Chemist 
North Perth","Shop 2, 4/391 Fitzgerald Street",North Perth,9328 3359,9328 3482,northperth@michaelschemist.com.au,M,B-N,B,,,,,,"7 DAYS M-F 8-7pm Sat 8-5 
Sun 11-5",WA,6006,Mr Michael Spartalis,Phone,"*Seeking more patients 14/07/21* 
EMERGENCY USE ONLY (not be given to clients) - 0415 080 539 Sophie Edelman
Accept One-off dosing ",
Northam Discount Drug Store,"Shop T15 Northam Boulevard SC
177 Fitzgerald St East",Northam,9622 1521,9622 3137,dispensary@northamdds.com.au,M,B-N,B,V,D,,A,"Mr Matthew
Reid","7 DAYS M-F 8.30-5.30 
Sat 8.30-2.30 Sun 9-2",WA,6401,Matthew Reid/David Stephenson/Sharon Bailey,Phone,"*Accept One-off dosing* Formerly ""Northam Pharmacy""",
"Wheatbelt Health Centre 
Pharmacy",5/25 Holtfreter Avenue,Northam,9622 7905,9622 7902,admin@wheatbeltpharmacy.com.au,M,B-N,B,V,D,,A,"Daniel 
O'Driscoll","6 DAYS M-F 8.30-5.30 
Sat 8.30-1",WA,6401,Mr Daniel O'Driscoll,Phone,"**EMERGENCY USE ONLY (not be given to clients) - 0405 684 658 Daniel O'Driscoll** 
Accept one-off dosing* Accept local and stable clients 21/10/19",
Chemist Discount Centre Northbridge,223 William Street,Northbridge,9328 7885,9328 8505,northbridge@cdcpharmacy.com.au,M,B-N,B,V,D,,A,"Christiana
Aniyi","7 DAYS M-F 6am-8pm 
Sat/Sun 9-5",WA,6003,Mrs Christiana Aniyi,Phone,"Approved for 100 clients.
Formerly ""Busy Bee Pharmacy""    *Accept one-offs dosing* 
",
Caring Pharmacy Northbridge,Shop 1 / 154-156 Newcastle St,Northbridge,9328 9447,9328 9441,northbridge@caringpharmacy.com.au,M,B-N,B,V,D,,A,Mr Eric Chim,6 DAYS M-F 8.30-7 Sat 9-4 ,WA,6003,Mr Eric Chim,Phone,Depot Admin M-F 9-4,
Ocean Reef Pharmacy,"Shop 3 Ocean Reef SC
81 Marina Boulevard",Ocean Reef,6116 8018,6323 1101,oceanreefpharmacy@gmail.com,M,B-N,B,,,,,,6 DAYS M-F 8-6 Sat 8-2,WA,6027,Rachel Morgan-Jones/Pieter Delhaas,Unknown,**EMERGENCY USE ONLY (not be given to clients) - 0400 014 741 Rachel Morgan-Jones*,
Osborne Park Pharmacy,207-209 Main Street,Osborne Park,9344 3655,9344 6036,opp@nunet.com.au,M,B-N,B,,,,,,"6 DAYS M-F 8.30-7 
Sat 8.30-5",WA,6017,Louis,Phone,**EMERGENCY USE ONLY (not be given to clients) - 0403 010 372 Louis Anastasas**,
Formula Pharmacy,"Unit 2, 369-375 Canning Hwy",Palmyra,9339 5158,9339 5164,formulapharmacy@outlook.com,M,,,,,,,,"6 DAYS M-W, Fri 8.30-6 Thu 8.30-8 Sat 8.30-6",WA,6157,Pheobee,Unknown,Program full - no new clients 1/1/19),
Paraburdoo Pharmacy,PO Box 12,Paraburdoo,6149 1348,9189 6761,paraburdoopharmacy@gmail.com,M,B-N,B,,,,,,6 DAYS M-F 9-5 Sat 9-1,WA,6754,Mr Seng Hoo Lu,{Not Stated},"Address: Shop 4 Paraburdoo SC, Ashburton Ave, Paraburdoo WA 6754",
Chisham Express Pharmacy,1 Chisham Ave,Parmelia,9419 3242,9419 2674,chishamave@frednet.com.au,M,B-N,,,,,,,"7 DAYS M-F 8.30-9
Sat-Sun 8.30-8",WA,6167,Dave/David/Matthew,Phone,"*Accept One-off dosing for well behaved clients* 
Formerly ""Chisham Avenue Dispensary"", ""Guardian Pharmacy Parmelia Chisham Ave""",
Greenleaf Pharmacy Pearsall,"Shop 1, 155 Willespie Drive",Pearsall,9206 5588,9206 5599,"pearsall@greenleaf.au
script.pearsall@greenleaf.au",M,B-N,B,V,D,,A,"Jamie 
Bogoias",7 DAYS 8-9,WA,6065,Jamie Bogoias,Phone,"Formerly Hocking Fullife Pharmacy, Pearsall Pharmacy",
Pemberton Pharmacy,48 Brockman Street,Pemberton,9776 1054,9776 0737,pembertonpharmacy@westnet.com.au,,,,,,BF,,,"7 DAYS M-F 9-5.30 
Sat 9-4 Sun 10.30-2",WA,6260,Helen Hamersley,{Not Stated},No further clients without approval through Community Pharmacotherapy Program,
"Chemist Discount Centre Perth 
CBD","Wesley Quarter
95 William Street",Perth,9321 5391,9321 5094,perth@cdcpharmacy.com.au,M,B-N,,,,,,,6 DAYS M-F 8-6 Sat 10-4,WA,6000,Jonathan Wong,Phone,"ONLY TAKE ONE-OFF CLIENTS 
EMERGENCY USE ONLY (not be given to clients) - 0430 521 616 Jonathan Wong** *formerly ""Friendlies Chemists Perth""",
Craven's Pharmacy,"Shop 2, 553 Hay Street",Perth,9325 4375,9325 7708,pharmacycravens@gmail.com,M,B-N,B,V,D,BF,A,"Poojah
Maru","6 DAYS M-F 7.30-5.30
Sat 8.30-5pm",WA,6000,Mr Ronald Stuurstraat,Phone,Not taking CPOP Clients (1/1/19),
Pharmacy 777 Perth City,"Lot 3 Gledden Bldg
731 Hay Street Mall",Perth,9321 6411,9321 1920,perthcity@pharmacy777.com.au,M,B-N,B,,,,,,6 DAYS M-F 7-6 Sat 9-5,WA,6000,Meahgan Liecester,Email,"*Please EMAIL scripts(Jun 2018)*. No dosing between 1100-1400hr. 
Open all PHs but only 0900-1200hrs. Not taking new patients. Formerly Fitch's Pharmacy",
Superchem Perth Central,Shop TR4 Raine Square SC,Perth,9321 4441,9322 5161,perth@superchem.com.au,M,B-N,B,,,,,,5 DAYS M-F 8-5.30,WA,6000,Ernest Pirone,Phone,"**DOSING hours 9am-4pm only** Superchem Raine Square closed since 4 May 2017.  
All clients transferred to here.  Same owner. In same shopping centre.",
Piara Waters Pharmacy,1/20 Riva Entrance,Piara Waters,9397 1282,6323 1030,admin@piarawaterspharmacy.com.au,M,B-N,B,,,BF,,,6 DAYS M-F 8-7 Sat 8-5,WA,6112,Paul Ngoo,{Not Stated},please email scripts,
TerryWhite Chemmart Pinjarra,PO Box 110,Pinjarra,9531 2436,9531 1892,pharmacist@twcmpinjarra.com.au,M,B-N,B,,,BF,,,"7 DAYS M-F 8-6 
Sat 8.30-5 Sun 8.30-1",WA,6208,Robert Pearson,{Not Stated},"**EMERGENCY USE ONLY (not be given to clients) - 0403 153 189 Robert Pearson** 
FULL 7/11/23, 27 Forrest Street, PINJARRA  WA 6208",
Pharmacy 777 Port Hedland,"PO Box 335, Point Hedland 6721
Shop 9 Boulevard SC
150 Anderson St",Port Hedland,9173 1350 ,9173 2707,porthedland@pharmacy777.com.au,M,B-N,B,V,D,,A,Mr Lee Ross,7 DAYS Mon-Sun 8-8,WA,6721,,Phone,"*Formerly Health Focus Pharmacy* 
**EMERGENCY USE ONLY (not be given to clients) - 0400 887 240 Lee**",
Port Kennedy Pharmacy,"Shop 8B,397 Warnbro Sound Ave",Port Kennedy,9524 6909,9524 6910,services@pkpharmacy.com.au,M,B-N,B,,,,,,"7 DAYS M-F 8-7 Sat 8-5 
Sun 8-4",WA,6172,Jadely Low,Phone,"Accept one-off dosing. 
**EMERGENCY USE ONLY (not be given to clients) - 0402 196 387 Jadely LOW**",
St Clair Pharmacy & News,"Shop 8, 49 Chelmsford Ave",Port Kennedy,9593 0299,9593 0806,stclairpharmacynews@hotmail.com,M,B-N,B,,,,,,"7 DAYS M-F 8-6 Sat 8-5 
Sun 9-5",WA,6172,George Salib,Phone,REFERRALS VIA CPP ONLY (1/1/2019),
Ravensthorpe Pharmacy,80 Morgans Street,Ravensthorpe,9838 1020,9838 1202,ravensthorpepharmacy@gmail.com,M,B-N,B,,,,,,"5 DAYS M, W, F 9.30-3.30
Tue, Thu 9.30-5",WA,6346,Ms Siearra Marina Ramli,Phone,**EMERGENCY USE ONLY (not be given to clients) - 0401 538 358 Siearra Cronin**,
Ravenswood Amcal Pharmacy,"Shop 3, 60 Lloyd Ave",Ravenswood,9537 6958 ,9537 6935,dispensary@ravenswoodpharmacy.com.au,M,B-N,,V,D,,A,"Mrs Quin Lee
Jeffery","6 DAYS M-F 8-5 
Sat 9-3",WA,6208,Mrs Quin Lee Jeffery,{Not Stated},*Accept One-off dosing*,
TerryWhite Chemmart Rivervale,118 Kooyong Road,Rivervale,9361 2244,9470 3460,info@rivervalechemmart.com.au,M,B-N,B,V,,,,,"6 DAYS M-F 8-6 
Sat 8-5",WA,6103,Karen Price-Patrick,Phone,"*Accept one-off dosing* 
EMERGENCY USE ONLY (not be given to clients) - 0403 485 999 Patrick or 
0417 917 730 Karen
Formerly *Rivervale Chemmart Pharmacy** ""Laurie Keys Chemmart Pharmacy"" ",
Infinity Pharmacy Rockingham,"Shop 213 Rockingham SC
1 Council Ave",Rockingham,9591 3288,9591 3088,rockingham@theinfinitygroup.net.au,,B-N,B,,,,,,"7 DAYS M-F 8-7 
Sat/Sun 8-6",WA,6168,Shaun Pulham,Phone,Formerly Wizard Pharmacy Rockingham,
Sonic Rockingham Pharmacy,24 Pedlar Circuit,Rockingham,9528 6610,9528 7076,sonicpharmacy@frednet.com.au,M,B-N,B,,,,,,5 DAYS M-F 8-4,WA,6168,Anna Bartlett,Phone,,
"Superchem Rockingham Beach 
Pharmacy","Lot 1 & Part Lot 6
Cnr Parkin St & Railway Tce",Rockingham,9527 1452,9527 4392,rockingham@superchem.com.au,M,B-N,B,V,D,,A,Fong Wong,7 DAYS +P/H 8-7.30,WA,6168,,Unknown,"**EMERGENCY USE ONLY (not be given to clients) - 0405 316 779 Alla AbuAbdu** 
*Accept One-off dosing*",
"TerryWhite Chemmart 
Rockingham Centre ","T131 Rockingham City SC,Read St",Rockingham,9527 3202,9527 3642,dispensary.rockingham@twcmgroup.com,M,B-N,B,V,D,,,,"7 DAYS M-F 8-8 Sat 8-6
Sun 10-6",WA,6168,Mitchell Coz,Email,*Formerly Terry White Chemists Rockingham City* ,
Roleystone Community Pharmacy,"Shop 15 Roleystone SC
21 Jarrah Rd",Roleystone,9397 5377,9397 6923,roleystonecommunitychemist@hotmail.com,M,B-N,B,,,BF,,,"7 DAYS M-F 8.30-6 
Sat 8.30-5 Sun 9-3",WA,6111,,Unknown,"**EMERGENCY USE ONLY (not be given to clients) - 0438 563 197 Stephen White or 
0421 467 417 Gary Toh** 
*Accept one-off dosing*",
Caring Pharmacy Malibu (Compounding Chemist),3/110 Malibu Road,Safety Bay,9527 7013,9527 7113,malibu@caringpharmacy.com.au,M,B-N,B,,,,,,"7 DAYS M-F 8-6 
Sat 8-5 Sun 8-1",WA,6169,James Yii,Phone,*Formerly Malibu Pharmacy*,
"Optimal Pharmacy Plus 
Scarborough",91 Scarborough Beach Road,Scarborough,9341 1756,9341 3419,oppsc@iinet.net.au,M,B-N,B,,,,,,7 DAYS 8-6,WA,6019,Mr Jason Murray,Unknown,*Formerly Post Office Pharmacy*,
Scarborough 7 Day Chemist,"Shop 3, 23 Scarborough Beach Rd",Scarborough,9245 1950,9245 3749,scarborough7daychemist@gmail.com,M,B-N,B,V,D,,A,Chirag Shah,7 DAYS 8-10pm,WA,6019,Mr Chirag Shah,Phone,"**EMERGENCY USE ONLY (not be given to clients) - 0402 705 490 Chirag SHAH** 
*Accept One-off dosing* Landline issues, please call Mobile 0402 705 490 (5 Nov 2019)",
Scarborough Beach Pharmacy,"Shop 11 Luna Maxi-Mart
241 West Coast Highway",Scarborough,9341 1133,9341 1131,scarboroughbeachpharmacy@gmail.com,M,B-N,B,V,D,,A,Chirag Shah,"7 DAYS M-Sat 8.30-7
Sat-Sun 9-5",WA,6019,Mr Chirag Shah,Phone,*Accept One-off dosing*,
Oasis Pharmacy,"Unit 1, Ground Floor
2 Clarkhill Rd","Secret 
Harbour",9501 9310,9501 9313,oasispharmacy.sh@gmail.com,M,B-N,,,,,,,"6 DAYS M-Fri 8.30-5.30
Sat 9-3",WA,6173,Mr David Pham,Phone,"*Accept one-off dosing* 
**EMERGENCY USE ONLY (not be given to clients) - 0403 153 337 David Pham** ",
Serpentine Pharmacy,"Lot 21, Unit 2, 26 Maxwell St",Serpentine,9525 3700,9525 3711,serpentinepharmacy@bigpond.com,M,B-N,B,,,BF,,,"6 DAYS M-F 8.30-5.30
Sat 8.30-1",WA,6125,Mr William Safar,{Not Stated},Mobile: 0401091921,
Shenton Pharmacy,214 Nicholson Road,Shenton Park,9381 1358,9380 6427,shenton.pharmacy@frednet.com.au,M,,,,,,,,"6 DAYS M-F 8.30-5.30
Sat 9-1",WA,6008,Aaron Ko,Unknown,,
Pharmacy 777 Shoalwater,"Sh 13 Shoalwater SC
117 Safety Bay Rd",Shoalwater,9528 7755,9528 7756,shoalwater@pharmacy777.com.au,M,B-N,B,,,,,,7 DAYS M-Sun 8-9,WA,6169,Ms Julie Ng,Unknown,"Not taking Depot Admin clients 23/5/24
*Accept One-off dosing* Formerly Shoalwater Pharmacy",
Pharmacy 777 Sorrento,"Seacrest Medical Centre
28 Seacrest Dr",Sorrento,9448 9299,9246 4256,Sorrento@pharmacy777.com.au,M,,,,,,,,"7 DAYS M-F 8-8 Sat 8-6 
Sun+P/H 8.30-6",WA,6020,Peata Wishart,Phone,"Formerly ""Friendlies Sorrento"", 'Seacrest Pharmacy' 11/08/20: Not taking patients",
"Greg's Discount Chemist 
South Fremantle","6 & 6a South Fremantle 
Market Place, 219 Hampton Rd","South 
Fremantle",9335 4344,9335 4355,southfreo@ppsportal.com.au,M,B-N,B,,,BF,,,"7 DAYS M-F 8-7 Sat 8-6 
Sun 11-5",WA,6162,Daniel Chew,Unknown,*Accept One-off dosing* Seeking new patients 10/07/20 Mob: 0401686088 ,
South Hedland Pharmacy,"Shop 22 Sth Hedland SC
Cnr Colebatch Way & Throssell Rd","South 
Hedland",9172 3899,9140 1089,shedlandpharmacy@westnet.com.au,M,B-N,,,,,,,"7 DAYS M-Sat 8-7 
Sun 9-5",WA,6722,Matt,Unknown,*Accept One-off dosing*,
"Optimal Pharmacy Plus 
Southlakes","Shop 16, Lakes SC, North Lake Rd",South Lake,9417 4119,9417 7536,oppsl@iinet.net.au,M,B-N,,,,,,,"7 DAYS M-F 8-7 Sat 8-5
Sun 11-5",WA,6164,Collin or Nao,Phone,"**EMERGENCY USE ONLY (not be given to clients) - 0487 933 930 Mark Bartels** 
*Formerly Nightingales Pharmacy South Lake*",
Pharmacy 777 South Lake,"Shop 3 Berrigan Quarter Community SC
49 Berrigan Dr",South Lake,9417 2788,9417 7011,southlake@pharmacy777.com.au,M,B-N,B,,,,,,7 Days 7-9 (Dosing 8-8),WA,6164,,{Not Stated},*Accept One-off dosing*,
TerryWhite Chemmart Yunderup,3/126 South Yunderup Road,"South 
Yunderup",9537 7011,9537 7022,yunderup@twcmgroup.com,M,B-N,B,,,BF,,,6 DAYS M-F 9-6 Sat 9-2,WA,6208,Guor Michar,{Not Stated},,
Pharmacy 777 Spearwood,7/223 Rockingham Rd,Spearwood,9418 6777,9418 7777,spearwood@pharmacy777.com.au,M,,B,,,,,,7 DAYS+P/H 7-8,WA,6163,Ms Wen Shyan Yap,Unknown,"*NO one-off clients* 
**EMERGENCY USE ONLY (not be given to clients) - 0433 776 512 Crystal Yap or 
0404 389 633 Eric Huong** 25/05/21: Full. ",
Phoenix Centre Pharmacy,"Shop 35 Phoenix SC
254 Rockingham Rd",Spearwood,9418 1548,9418 7220,phoenixcentrepharmacy@gmail.com,M,B-N,B,,,BF,,,"7 DAYS M-F 8-7 Sat 8-5 
Sun 11-5",WA,6163,Mark Langridge/Shane,Phone,"**EMERGENCY USE ONLY (not be given to clients) - 0404 263 555 Lukasz Ziola** 
*Accept One-off dosing*",
Botts Compounding Pharmacy,1098A Albany Highway,St James,9458 1515,9458 1545,info@bottspharmacy.com.au,M,B-N,B,,,,,,7 DAYS+P/H 8am-11pm,WA,6102,Trevor Leith/Andrew Cronin,Phone,"Approved for 100 clients.
**EMERGENCY USE ONLY (not be given to clients) - 0488 889 960 Trevor Leith** 
Formerly Botts Drive-In Pharmacy",
St James Newstart Pharmacy,16A & B Chapman Road,St James,9361 6101,9472 1764,info@sjnp.com.au,M,B-N,B,,,,,,7 DAYS 8-8,WA,6102,Joanne,Phone,**EMERGENCY USE ONLY (not be given to clients) - 0439 096 460 Joanne Abetz**,
St Francis Pharmacy,"Shop 19 Subiaco Square SC
29 Station St",Subiaco,9380 6711,9380 6722,enquiries@stfrancispharmacy.com.au,M,B-N,B,,,,,,"7 DAYS M-F 7-8 
Sat/Sun 7-7",WA,6008,Ms Kirsty Chew,Unknown,"Previously Subi-Square Pharmacy. Seeking new clients (11/01/19) 
All new clients to be discussed with Kirsty (owner) first",
Greenleaf Pharmacy Subiaco,145 Hay St,Subiaco,6370 2212,,subiaco@greenleaf.au,M,B-N,B,V,D,,A,"Jamie 
Bogoias",5 DAYS 8-6,WA,6008,Mr Jamie Bogoias,Phone,,
Cockburn Super Clinic Pharmacy,"Unit 2, 11 Wentworth Parade",Success,9414 3851,9414 3061,info@csclinicpharmacy.com.au,M,B-N,B,V,D,,A,Bob TIN,"6 DAYS M-F 8-8, Sat 9-5",WA,6164,Mr Bob J S Ng Cheong Tin,Phone,*Accept one-offs dosing*,
Priceline Pharmacy Gateways,"Shop 104, 816 Beeliar Drive",Success,9414 3375,9414 3379,gateways@theinfinitygroup.net.au,M,,,,,,,,"7 DAYS M-F 8-7 Sat 8-5
Sun 11-5",WA,6164,Mr Mark Connor,Phone,,
"Morrison Road Compounding 
Pharmacy","Shop 1 Darling Ridge SC
309 Morrison Rd",Swan View,9255 2660,9255 2669,mrdip@bigpond.com,M,B-N,B,,,,,,"7 DAYS M-F 8.30-7.30 
Sat 8.30-6.30
Sun 9.30-6.30",WA,6056,,Phone,"**EMERGENCY USE ONLY (not be given to clients) - 0419 922 460 John Lagana** 
Formerly ""Friendlies Chemists Swan View""",
Thornlie Square Pharmacy,"Shop 18, Thornlie Square SC
Cnr Spencer Rd & Thornlie Ave",Thornlie,9459 2611,9459 2187,thornliesqphy@gmail.com,M,B-N,B,V,D,,,,"7 DATS M-F 8.30-6
Sat 8.30-5 Sun 10-4",WA,6108,Jonathan Han,Phone,"Accept One-off dosing. *Approved to supply Buvidal to NS Thornlie 20/11/2020* **FAX line got issues due to NBN, please EMAIL script or call to check after fax**
 **EMERGENCY USE ONLY (not be given to clients) - 0416 855 190 Jonathan Han** Formerly Thornlie Square Soul Pattinson Chemist",
Sal's Pharmacy,106 Railway Road,Three Springs,9954 1994,9932 6122,salspharmacy@hotmail.com,M,B-N,B,,,,,,"5 DAYS M, Tue, Thu 9-5
Wed 4.15-5.15 Fri 9-3.30",WA,6519,Reshad Jahangeer,Email,*Not taking on clients 8/12/2020*,
Tom Price Pharmacy,PO Box 40,Tom Price,9189 1202,9189 2125,tompricepharmacy@gmail.com,M,B-N,,,,,,,"6 DAYS M-F 8.30-5.30 
Sat 9-2",WA,6751,,Unknown,"**EMERGENCY USE ONLY (not be given to clients) - 0430 362 339 Ben** 
*Accept One-off dosing* 
Shops 4 & 5 Tom Price Shopping Centre Jacaranda Drive, Tom Price WA 6751",
Trigg Medical Pharmacy,"Shop 4, 131 Lynn St",Trigg,9447 7314,9447 7314,triggmedicalpharmacy@gmail.com,M,B-N,B,,,,,,"6 DAYS M-F 9-6 
Sat 9-2",WA,6029,Yong Sim LEE,Phone,,
Amcal Tuart Hill,Shop 3 / 85 Wanneroo Road,Tuart Hill,9349 1065,9349 4241,dispensary.tuarthill@amcal.net.au,M,B-N,B,V,D,,A,"George
Kounis",7 DAYS 8-8,WA,6060,Michael Chesney,Phone,"Approved for 100 clients.
**EMERGENCY USE ONLY (not be given to clients) - 0407 981 062 Michael Chesney** 
Formerly Peter Cook Amcal Chemist",
Pharmacy 777 Dog Swamp,"Shop 4 Dog Swamp SC
6 Wanneroo Rd",Tuart Hill,9444 6325,9444 6327,dogswamp@pharmacy777.com.au,M,B-N,B,,,,,,7 DAYS 8-7,WA,6060,Ms Jovana Seat,Phone,"*Accept One-off dosing (provided script cfm with CPOP issuer) 
Seeking more clients 7/5/20 ",
Vasse Pharmacy,21 Napoleon Promenade,Vasse,9787 8800,9794 2597,vassepharmacy@gmail.com,M,B-N,B,,,,,,7 DAYS 8am-6pm,WA,6280,Ms Nadine Botha,Phone,"*Accept one-off dosing* 
**EMERGENCY USE ONLY (not be given to clients) - 0457 077 798 Nadine Botha**",
Wagin Pharmacy,52 Tudhoe St,Wagin,9861 1245,9861 2419,waginpharmacy@gmail.com,,,,,,,,,"6 DAYS M-F 8.30-5 
Sat 10-12",WA,6315,Shayan Hooshmand,Phone,,
Optimal Pharmacy Plus Waikiki,"Shop 9 Stargate SC
76 Charthouse Rd",Waikiki,9591 3199,9591 1433,oppw@westnet.com.au,M,B-N,,,,,,,7 DAYS Mon-Sun 8-8,WA,6169,Liberty,Phone,"**EMERGENCY USE ONLY (not be given to clients) - 0419 947 161 Liberty Dunstan** 
Formerly Guardian Pharmacy Warnbro",
TerryWhite Chemmart Waikiki ,"Shop 19 Waikiki Village SC
Cnr Read St & Gnangara Dr",Waikiki,9591 3011,9591 3022,Dispensary.waikiki@twcmgroup.com,M,B-N,B,,,,,,"7 DAYS M-F 8-7 Sat 8-5 
Sun 10-5",WA,6169,Michael Japp,Unknown,Formerly Waikiki Discount Drug Store,
Wangara Pharmacy,"Shop 9, 2 Prindiville Drive",Wangara,9200 4400,9200 4401,wangarapharmacy@outlook.com,M,B-N,B,,,,,,7 Days 7am-11 pm,WA,6065,Bassem Saad,Phone,"*Seeking more patients 19/03/21* *Accept One-off dosing* 
Formerly Friendlies Wangara* Mobile: 0418442445",
Amcal Pharmacy Wanneroo,"U1 & 2, 771 Wanneroo Rd",Wanneroo,9405 2229,9206 2229,dispensary@wanneroopharmacy.com,M,B-N,B,,,,,,6 DAYS M-Sat 8.30-5,WA,6065,Ms Li Chuen (Ellsy) Choo,Phone,Formerly ' Pharmacy 777 Wanneroo',
Drovers Pharmacy Wanneroo,"Shop 11, 1397 Wanneroo Rd",Wanneroo,9206 1545,9206 1954,wanneroo@droverspharmacy.com.au,M,B-N,B,,,,,,6 DAYS M-F 8-6 Sat 8-5,WA,6065,Christine Mwende,{Not Stated},"Accept one-off dosing. *Formerly Drovers Pharmacy* *Formerly Michael's Chemist Wanneroo*
**EMERGENCY USE ONLY (not be given to clients) - 0407 775 231 Tania Ncube** 
Formerly Drovers Health Pharmacy* Seeking clients 07/07/20 ",
TerryWhite Chemmart Warwick,"Shop 16 Warwick Grove
Cnr Beach & Erindale Rd",Warwick,9448 2900,9246 3138,dispense@twcwarwick.com.au,M,B-N,B,V,D,,A,"Gavin
Healy","7 DAYS M-F 8-8 Sat 8-6
Sun 10-6",WA,6024,Gavin Healy,Phone,"*Approved to supply Buvidal to NS Warwick 13/3/2020* 
Formerly Terry White Chemists Warwick and Warwick Amcal Chemist",
Wattle Grove Pharmacy,10 / 338 Hale Road,Wattle Grove,9359 2266,9453 1783,wattlegrove6cpa@gmail.com,M,B-N,B,,,,,,"6 DAYS M-F 8.30-7pm 
Sat 8.30-6pm",WA,6107,Soo Jin,Phone,,
Wizard Pharmacy Wellard,"Shop 17, 10 The Strand, Wellard Square",Wellard,9419 2900,9501 9292,pm.wellard1@wizardphy.com.au,M,B-N,B,V,D,,A,Mario Atmaja,7 DAYS M-F 8-7 Sat 9-5 Sun 11-5,WA,6170,Mario Atmaja,Phone,Buvidal admin M-F 10-4 only,
Pharmacy 777 Wembley,274 Cambridge Street,Wembley,9387 3984,9387 4000,wembley@pharmacy777.com.au,M,B-N,,,,,,,7 DAYS M-Sun 8-8,WA,6014,Jessica Figg/Trupti Gohil,Phone,,
Wembley Pharmacy,361 Cambridge Street,Wembley,9387 3079,9387 4014,wembley@pharmacyalliance.net,M,B-N,B,,,,,,7 DAYS+P/H 8-10,WA,6014,,Unknown,"*Accept one-off dosing* 
**EMERGENCY USE ONLY (not be given to clients) - 0407 427 669 Navid Namdar**",
"TerryWhite Chemmart Wembley 
Downs","Shop 2-3 Wembley Downs SC
11 Bournemouth Crescent","Wembley 
Downs",9341 3404,9245 1647,"wembleydowns@
terrywhitechemmart.com.au",M,B-N,B,,,,,,"7 DAYS M-F 8-7 
Sat/Sun 8-6",WA,6019,Henry Gulev,Phone,*Formerly The Downs Chemmart*,
"Terry White Chemmart West 
Leederville","Unit 1 West Leederville Ctr
115 Cambridge St","West 
Leederville",9381 5087,9381 3027,westleederville@terrywhitechemmart.com.au,M,B-N,,,,,,,"7 DAYS M-F 8-7 Sat 8.30-5
 Sun 11-5",WA,6007,Mr Eric Chim,Phone,Formerly 'West Leederville Soul Pattinson Chemist',
Wickham Pharmacy,"Shop 4 Wickham CC, Mulga Way",Wickham,9187 0708,9187 0708,wickhampharmacy@hotmail.com,M,B-N,B,,,BF,,,6 DAYS M-Sat 9-5.30,WA,6720,Mrs Teresa Tan,{Not Stated},28/01/21 Fax unreliable. Please only use email,
Pharmacy 777 Willagee,1/60 Archibald Street,Willagee,9337 2718,9331 2201,willagee@pharmacy777.com.au,M,B-N,,,,,,,"7 DAYS M-F 8-7 Sat 8-5 
Sun 9-2",WA,6156,Kim Dethlefsen,Unknown,"**EMERGENCY USE ONLY (not be given to clients) - 0406 688 936 Kim Dethlefsen** 
Formerly ""Amcal Chemist Willagee"" Formerly ""Friendlies Chemists Willagee""",
Pharmacy 777 Willetton,"Shop 10 Burrendah SC
61 Apsley Rd",Willetton,9457 1777,9457 1589,Willetton@pharmacy777.com.au,M,B-N,B,,,,,,7 DAYS 7am-8pm,WA,6155,Ms Hua Ying Cheong,Unknown,"**EMERGENCY USE ONLY (not be given to clients) - 0402 483 995 David Biancuzzo* 
No referrals as of 1/1/19",
Wizard Pharmacy Willetton,"Shop 3 Riverton SC, 189 High Rd",Willetton,9457 3467,9354 7031,pm.willetton1@wizardphy.com.au,M,B-N,B,,,,,,"7 DAYS M-F 8.30-7 
Sat 8.30-5 Sun 9-5",WA,6155,Nadia Jillian Dyson,Unknown,"Formerly ""Terry White Chemmart Willetton"" Formerly ""Willetton Chemmart Pharmacy""",
Williams Pharmacy,34 Albany Highway,Williams,9865 9101,9865 9101 ,williams.pharmacy@yahoo.com,M,B-N,B,,,,,,"6 Days M-F 9-5
Sat 9-12.30",WA,6391,Ms Georgia Porter,Phone,**EMERGENCY USE ONLY (not be given to clients) - 0455 352 800 Swee Ping PANG*,
Wongan Hills Pharmacy,19 Elphin Cres,Wongan Hills,9671 1157,9671 1957,wonganhillschemist@gmail.com,M,B-N,B,,,BF,,,"6 DAYS M-F 9-5.30 
Sat 9-12.30 ",WA,6603,Mr John Cao,Phone,,
Woodvale Pharmacy,"Shop 12, 153 Trappers Dr",Woodvale,9309 2601,9309 2528,woodvalephcy@gmail.com,M,B-N,B,,,BF,,,"7 DAYS M-F 8-6.30 
Sat 8-4 Sun 11-5",WA,6026,Mr Quoc Khanh Nguyen,Phone,**EMERGENCY USE ONLY (not be given to clients) - 0412 078 474 Khanh NGUYEN**,
Acacia Prison Medical Services,Great Eastern Highway,Wooroloo,9573 3300,,,M,B-N,B,V,,,,,,WA,6558,,,,
Pharmacy 777 Yanchep,"T16/18 Yanchep Central SC
1 & 2 Peony Boulevard",Yanchep,6244 8517,6244 8537,yanchep@pharmacy777.com.au,M,B-N,B,,,,,,"7 DAYS M-F 8-8 Sat 8-5 
Sun 11-5",WA,6035,Mun Kiat CHAN,Phone,*Accept one-off dosing*,
Yanchep Community Pharmacy,"Shop 3 The Village, 5 Village Row",Yanchep,9561 2888,9561 2899,yancheppharmacy@bigpond.com,M,B-N,B,V,D,,A,"Paul 
Drake-Brockman"," 7 DAYS M-F 8-8 
SAT 8-5.30 SUN 9-5
Depot Admin M-F 10-5 talk to Paul",WA,6035,Mr Paul Drake-Brockman,Phone,"**EMERGENCY USE ONLY (not be given to clients) - 0423 037 666 Michael Hainsworth** 
Formerly ""Yanchep Pharmacy""",
Caring Pharmacy Yangebup,"Shop 12 Lakelands C
31 Moorhen Rd",Yangebup,9417 1108,9417 2649,yangebup@caringpharmacy.com.au,M,B-N,B,,,,,,"7 DAYS M-F 8-6 Sat 8-5 
Sun P/H 9-2",WA,6164,Mr Harshand Varsani,Unknown,"*Accept one-off dosing* 
**EMERGENCY USE ONLY (not be given to clients) - 0406 659 182 Ashley Zhang** 
Formerly ""Yangebup Community Pharmacy"" Formerly 'Friendlies Chemist Yangebup'",
Pharmacy 777 Flinders,"Shop 20 Flinders Square SC
Cnr Flinders & Wiluna St",Yokine,9443 1749,9443 1741,flinders@pharmacy777.com.au,M,B-N,B,,,,,,7 DAYS 8-9,WA,6060,Ms Jovana Seat,Phone,*Seeking more clients 12/5/20** *Accept One-off dosing 10-5pm only*,
"Royal Street Community 
Pharmacy",162 Wanneroo Road,Yokine,9349 4011,9349 4217,rscp@ppsportal.com.au,M,B-N,B,,,,,,"7 DAYS M-Sat 8-8 
Sun 8-6",WA,6060,Christina Sua,Unknown,"*Accept One-off dosing* *Formerly ""Royal St Chemmart""",
Amcal Yokine Pharmacy,224 Swan Street,Yokine,9349 1676,9349 1676,dispensary@yokinepharmacy.com.au,M,B-N,B,V,D,,,,7 DAYS+P/H 8-8,WA,6060,Deseree Bui,Email,Formerly Yokine Pharmacy.  Full - not taking on new clients 29/5/19 ,
Health Pharmacy York,105 Avon Terrace,York,9641 1044,9641 1446,dispensary@healthpharmacy.com.au,M,B-N,B,,,,,,"6 DAYS M-F 8.30-5.30
Sat 8.30-12.30",WA,6302,Miss Sherwin Kashani,Unknown,"**EMERGENCY USE ONLY (not be given to clients) - 0427 411 044 Matthew Reid* 
*Accept One-off dosing* Formerly York Pharmacy",
